<gpx xmlns:ns3="http://www.garmin.com/xmlschemas/TrackPointExtension/v1" xmlns="http://www.topografix.com/GPX/1/1" xmlns:xsi="http://www.w3.org/2001/XMLSchema-instance" xmlns:ns2="http://www.garmin.com/xmlschemas/GpxExtensions/v3" creator="Garmin Connect" version="1.1" xsi:schemaLocation="http://www.topografix.com/GPX/1/1 http://www.topografix.com/GPX/11.xsd">
  <extensions>
<distance>5545.17</distance>
<average_hr></average_hr>
<average_speed>2.703000068664551</average_speed>
<start_time>2020-07-18T07:56:51+00:00</start_time>
<end_time>2020-07-18T08:31:02.675000+00:00</end_time>
<moving_time>1894.205</moving_time>
<elapsed_time>2051.675</elapsed_time>
</extensions>
<metadata>
    <link href="connect.garmin.com">
      <text>Garmin Connect</text>
    </link>
    <time>2020-07-18T07:56:51.000Z</time>
  </metadata>
  <trk>
    <name>崇礼云顶酒店跑步机</name>
    <type>treadmill_running</type>
    <trkseg/>
  </trk>
</gpx>
