<gpx xmlns:ns3="http://www.garmin.com/xmlschemas/TrackPointExtension/v1" xmlns="http://www.topografix.com/GPX/1/1" xmlns:xsi="http://www.w3.org/2001/XMLSchema-instance" xmlns:ns2="http://www.garmin.com/xmlschemas/GpxExtensions/v3" creator="Garmin Connect" version="1.1" xsi:schemaLocation="http://www.topografix.com/GPX/1/1 http://www.topografix.com/GPX/11.xsd">
  <extensions>
<distance>2500.0</distance>
<average_hr></average_hr>
<average_speed>3.0880000591278076</average_speed>
<start_time>2020-07-18T07:16:09+00:00</start_time>
<end_time>2020-07-18T07:29:38.623000+00:00</end_time>
<moving_time>797.0</moving_time>
<elapsed_time>814.404</elapsed_time>
</extensions>
<metadata>
    <link href="connect.garmin.com">
      <text>Garmin Connect</text>
    </link>
    <time>2020-07-18T07:16:09.000Z</time>
  </metadata>
  <trk>
    <name>崇礼云顶酒店跑步机</name>
    <type>treadmill_running</type>
    <trkseg/>
  </trk>
</gpx>
