<gpx xmlns:ns3="http://www.garmin.com/xmlschemas/TrackPointExtension/v1" xmlns="http://www.topografix.com/GPX/1/1" xmlns:xsi="http://www.w3.org/2001/XMLSchema-instance" xmlns:ns2="http://www.garmin.com/xmlschemas/GpxExtensions/v3" creator="Garmin Connect" version="1.1" xsi:schemaLocation="http://www.topografix.com/GPX/1/1 http://www.topografix.com/GPX/11.xsd">
  <extensions>
<distance>3330.0</distance>
<average_hr>132.0</average_hr>
<average_speed>2.2980000972747803</average_speed>
<start_time>2020-08-18T12:11:23+00:00</start_time>
<end_time>2020-08-18T12:35:32.170000+00:00</end_time>
<moving_time>1430.074</moving_time>
<elapsed_time>1454.03</elapsed_time>
</extensions>
<metadata>
    <link href="connect.garmin.com">
      <text>Garmin Connect</text>
    </link>
    <time>2020-08-18T12:11:23.000Z</time>
  </metadata>
  <trk>
    <name>深圳博林喜来登酒店跑步机</name>
    <type>treadmill_running</type>
    <trkseg/>
  </trk>
</gpx>
