<gpx xmlns:ns3="http://www.garmin.com/xmlschemas/TrackPointExtension/v1" xmlns="http://www.topografix.com/GPX/1/1" xmlns:xsi="http://www.w3.org/2001/XMLSchema-instance" xmlns:ns2="http://www.garmin.com/xmlschemas/GpxExtensions/v3" creator="Garmin Connect" version="1.1" xsi:schemaLocation="http://www.topografix.com/GPX/1/1 http://www.topografix.com/GPX/11.xsd">
  <extensions>
<distance>5257.57</distance>
<average_hr></average_hr>
<average_speed>2.2170000076293945</average_speed>
<start_time>2017-03-04T12:12:44+00:00</start_time>
<end_time>2017-03-04T12:52:15.630000+00:00</end_time>
<moving_time>2283.0</moving_time>
<elapsed_time>2503.617</elapsed_time>
</extensions>
<metadata>
    <link href="connect.garmin.com">
      <text>Garmin Connect</text>
    </link>
    <time>2017-03-04T12:12:44.000Z</time>
  </metadata>
  <trk>
    <name>内蒙多伦县龙泽苑跑步机</name>
    <type>treadmill_running</type>
    <trkseg/>
  </trk>
</gpx>
