<gpx xmlns:ns3="http://www.garmin.com/xmlschemas/TrackPointExtension/v1" xmlns="http://www.topografix.com/GPX/1/1" xmlns:xsi="http://www.w3.org/2001/XMLSchema-instance" xmlns:ns2="http://www.garmin.com/xmlschemas/GpxExtensions/v3" creator="Garmin Connect" version="1.1" xsi:schemaLocation="http://www.topografix.com/GPX/1/1 http://www.topografix.com/GPX/11.xsd">
  <extensions>
<distance>3000.0</distance>
<average_hr>159.0</average_hr>
<average_speed>2.599804321394743</average_speed>
<start_time>2020-11-08T12:00:23+00:00</start_time>
<end_time>2020-11-08T12:19:36.933000+00:00</end_time>
<moving_time>1094.0</moving_time>
<elapsed_time>1153.933</elapsed_time>
</extensions>
<metadata>
    <link href="connect.garmin.com">
      <text>Garmin Connect</text>
    </link>
    <time>2020-11-08T12:00:23.000Z</time>
  </metadata>
  <trk>
    <name>浙江安吉海博山庄跑步机</name>
    <type>treadmill_running</type>
    <trkseg/>
  </trk>
</gpx>
