<gpx xmlns:ns3="http://www.garmin.com/xmlschemas/TrackPointExtension/v1" xmlns="http://www.topografix.com/GPX/1/1" xmlns:xsi="http://www.w3.org/2001/XMLSchema-instance" xmlns:ns2="http://www.garmin.com/xmlschemas/GpxExtensions/v3" creator="Garmin Connect" version="1.1" xsi:schemaLocation="http://www.topografix.com/GPX/1/1 http://www.topografix.com/GPX/11.xsd">
  <extensions>
<distance>1825.0</distance>
<average_hr>115.0</average_hr>
<average_speed>0.6949999928474426</average_speed>
<start_time>2021-01-16T11:04:24+00:00</start_time>
<end_time>2021-01-16T11:54:27.039000+00:00</end_time>
<moving_time>2625.604</moving_time>
<elapsed_time>3012.188</elapsed_time>
</extensions>
<metadata>
    <link href="connect.garmin.com">
      <text>Garmin Connect</text>
    </link>
    <time>2021-01-16T11:04:24.000Z</time>
  </metadata>
  <trk>
    <name>名佳花园健身房游泳</name>
    <type>lap_swimming</type>
    <trkseg/>
  </trk>
</gpx>
