<gpx xmlns:ns3="http://www.garmin.com/xmlschemas/TrackPointExtension/v1" xmlns="http://www.topografix.com/GPX/1/1" xmlns:xsi="http://www.w3.org/2001/XMLSchema-instance" xmlns:ns2="http://www.garmin.com/xmlschemas/GpxExtensions/v3" creator="Garmin Connect" version="1.1" xsi:schemaLocation="http://www.topografix.com/GPX/1/1 http://www.topografix.com/GPX/11.xsd">
  <extensions>
<distance>3000.0</distance>
<average_hr>161.0</average_hr>
<average_speed>2.3876453678088096</average_speed>
<start_time>2021-01-16T12:07:26+00:00</start_time>
<end_time>2021-01-16T12:28:22.468000+00:00</end_time>
<moving_time>0.0</moving_time>
<elapsed_time>1378.86</elapsed_time>
</extensions>
<metadata>
    <link href="connect.garmin.com">
      <text>Garmin Connect</text>
    </link>
    <time>2021-01-16T12:07:26.000Z</time>
  </metadata>
  <trk>
    <name>名佳健身跑步机</name>
    <type>treadmill_running</type>
    <trkseg/>
  </trk>
</gpx>
