<gpx xmlns:ns3="http://www.garmin.com/xmlschemas/TrackPointExtension/v1" xmlns="http://www.topografix.com/GPX/1/1" xmlns:xsi="http://www.w3.org/2001/XMLSchema-instance" xmlns:ns2="http://www.garmin.com/xmlschemas/GpxExtensions/v3" creator="Garmin Connect" version="1.1" xsi:schemaLocation="http://www.topografix.com/GPX/1/1 http://www.topografix.com/GPX/11.xsd">
  <extensions>
<distance>4000.0</distance>
<average_hr>156.0</average_hr>
<average_speed>2.7168837343566925</average_speed>
<start_time>2021-10-05T10:05:13+00:00</start_time>
<end_time>2021-10-05T10:29:45.275000+00:00</end_time>
<moving_time>1462.848</moving_time>
<elapsed_time>1472.275</elapsed_time>
</extensions>
<metadata>
    <link href="connect.garmin.com">
      <text>Garmin Connect</text>
    </link>
    <time>2021-10-05T10:05:13.000Z</time>
  </metadata>
  <trk>
    <name>迁西跑步机上跑步</name>
    <type>treadmill_running</type>
    <trkseg/>
  </trk>
</gpx>
