<gpx xmlns:ns3="http://www.garmin.com/xmlschemas/TrackPointExtension/v1" xmlns="http://www.topografix.com/GPX/1/1" xmlns:xsi="http://www.w3.org/2001/XMLSchema-instance" xmlns:ns2="http://www.garmin.com/xmlschemas/GpxExtensions/v3" creator="Garmin Connect" version="1.1" xsi:schemaLocation="http://www.topografix.com/GPX/1/1 http://www.topografix.com/GPX/11.xsd">
  <extensions>
<distance>0.0</distance>
<average_hr></average_hr>
<average_speed></average_speed>
<start_time>2021-11-21T03:05:43+00:00</start_time>
<end_time>2021-11-21T04:00:39.115000+00:00</end_time>
<moving_time></moving_time>
<elapsed_time>3296.115</elapsed_time>
</extensions>
<metadata>
    <link href="connect.garmin.com">
      <text>Garmin Connect</text>
    </link>
    <time>2021-11-21T03:05:43.000Z</time>
  </metadata>
  <trk>
    <name>复合运动</name>
    <type>multi_sport</type>
    <trkseg/>
  </trk>
</gpx>
