<gpx xmlns:ns3="http://www.garmin.com/xmlschemas/TrackPointExtension/v1" xmlns="http://www.topografix.com/GPX/1/1" xmlns:xsi="http://www.w3.org/2001/XMLSchema-instance" xmlns:ns2="http://www.garmin.com/xmlschemas/GpxExtensions/v3" creator="Garmin Connect" version="1.1" xsi:schemaLocation="http://www.topografix.com/GPX/1/1 http://www.topografix.com/GPX/11.xsd">
  <extensions>
<distance>1200.0</distance>
<average_hr>102.0</average_hr>
<average_speed>0.609000027179718</average_speed>
<start_time>2022-01-18T07:24:09+00:00</start_time>
<end_time>2022-01-18T07:57:27.140000+00:00</end_time>
<moving_time>1970.765</moving_time>
<elapsed_time>2005.637</elapsed_time>
</extensions>
<metadata>
    <link href="connect.garmin.com">
      <text>Garmin Connect</text>
    </link>
    <time>2022-01-18T07:24:09.000Z</time>
  </metadata>
  <trk>
    <name>瞰都泳池游泳10</name>
    <type>lap_swimming</type>
    <trkseg/>
  </trk>
</gpx>
