<gpx xmlns:ns3="http://www.garmin.com/xmlschemas/TrackPointExtension/v1" xmlns="http://www.topografix.com/GPX/1/1" xmlns:xsi="http://www.w3.org/2001/XMLSchema-instance" xmlns:ns2="http://www.garmin.com/xmlschemas/GpxExtensions/v3" creator="Garmin Connect" version="1.1" xsi:schemaLocation="http://www.topografix.com/GPX/1/1 http://www.topografix.com/GPX/11.xsd">
  <extensions>
<distance>1.74</distance>
<average_hr></average_hr>
<average_speed>0.0012545920690034084</average_speed>
<start_time>2022-02-22T10:20:44+00:00</start_time>
<end_time>2022-02-22T10:43:50.905000+00:00</end_time>
<moving_time></moving_time>
<elapsed_time>1386.905</elapsed_time>
</extensions>
<metadata>
    <link href="connect.garmin.com">
      <text>Garmin Connect</text>
    </link>
    <time>2022-02-22T10:20:44.000Z</time>
  </metadata>
  <trk>
    <name>复合运动</name>
    <type>multi_sport</type>
    <trkseg/>
  </trk>
</gpx>
