<gpx xmlns:ns3="http://www.garmin.com/xmlschemas/TrackPointExtension/v1" xmlns="http://www.topografix.com/GPX/1/1" xmlns:xsi="http://www.w3.org/2001/XMLSchema-instance" xmlns:ns2="http://www.garmin.com/xmlschemas/GpxExtensions/v3" creator="Garmin Connect" version="1.1" xsi:schemaLocation="http://www.topografix.com/GPX/1/1 http://www.topografix.com/GPX/11.xsd">
  <extensions>
<distance>0.0</distance>
<average_hr>58.0</average_hr>
<average_speed>0.0</average_speed>
<start_time>2021-05-04T15:25:17.530000+00:00</start_time>
<end_time>2021-05-04T15:29:42.300000+00:00</end_time>
<moving_time>264.77</moving_time>
<elapsed_time>264.77</elapsed_time>
</extensions>
<metadata>
    <link href="connect.garmin.com">
      <text>Garmin Connect</text>
    </link>
    <time>2021-05-04T15:25:17.531Z</time>
  </metadata>
  <trk>
    <name>普拉提</name>
    <type>pilates</type>
    <trkseg/>
  </trk>
</gpx>
