<gpx xmlns:ns3="http://www.garmin.com/xmlschemas/TrackPointExtension/v1" xmlns="http://www.topografix.com/GPX/1/1" xmlns:xsi="http://www.w3.org/2001/XMLSchema-instance" xmlns:ns2="http://www.garmin.com/xmlschemas/GpxExtensions/v3" creator="Garmin Connect" version="1.1" xsi:schemaLocation="http://www.topografix.com/GPX/1/1 http://www.topografix.com/GPX/11.xsd">
  <extensions>
<distance></distance>
<average_hr>59.0</average_hr>
<average_speed>0.0</average_speed>
<start_time>2020-05-04T04:17:26.970000+00:00</start_time>
<end_time>2020-05-04T04:20:07.524000+00:00</end_time>
<moving_time>160.554</moving_time>
<elapsed_time>160.554</elapsed_time>
</extensions>
<metadata>
    <link href="connect.garmin.com">
      <text>Garmin Connect</text>
    </link>
    <time>2020-05-04T04:17:26.978Z</time>
  </metadata>
  <trk>
    <name>瑜伽</name>
    <type>yoga</type>
    <trkseg/>
  </trk>
</gpx>
