<gpx xmlns:ns3="http://www.garmin.com/xmlschemas/TrackPointExtension/v1" xmlns="http://www.topografix.com/GPX/1/1" xmlns:xsi="http://www.w3.org/2001/XMLSchema-instance" xmlns:ns2="http://www.garmin.com/xmlschemas/GpxExtensions/v3" creator="Garmin Connect" version="1.1" xsi:schemaLocation="http://www.topografix.com/GPX/1/1 http://www.topografix.com/GPX/11.xsd">
  <extensions>
<distance></distance>
<average_hr>63.0</average_hr>
<average_speed>0.0</average_speed>
<start_time>2021-11-01T08:05:48.780000+00:00</start_time>
<end_time>2021-11-01T08:13:26.223000+00:00</end_time>
<moving_time>457.443</moving_time>
<elapsed_time>457.443</elapsed_time>
</extensions>
<metadata>
    <link href="connect.garmin.com">
      <text>Garmin Connect</text>
    </link>
    <time>2021-11-01T08:05:48.789Z</time>
  </metadata>
  <trk>
    <name>瑜伽</name>
    <type>yoga</type>
    <trkseg/>
  </trk>
</gpx>
