<gpx xmlns:ns3="http://www.garmin.com/xmlschemas/TrackPointExtension/v1" xmlns="http://www.topografix.com/GPX/1/1" xmlns:xsi="http://www.w3.org/2001/XMLSchema-instance" xmlns:ns2="http://www.garmin.com/xmlschemas/GpxExtensions/v3" creator="Garmin Connect" version="1.1" xsi:schemaLocation="http://www.topografix.com/GPX/1/1 http://www.topografix.com/GPX/11.xsd">
  <extensions>
<distance></distance>
<average_hr>67.0</average_hr>
<average_speed>0.0</average_speed>
<start_time>2021-12-22T07:43:30.590000+00:00</start_time>
<end_time>2021-12-22T07:50:52.294000+00:00</end_time>
<moving_time>441.704</moving_time>
<elapsed_time>441.704</elapsed_time>
</extensions>
<metadata>
    <link href="connect.garmin.com">
      <text>Garmin Connect</text>
    </link>
    <time>2021-12-22T07:43:30.598Z</time>
  </metadata>
  <trk>
    <name>瑜伽</name>
    <type>yoga</type>
    <trkseg/>
  </trk>
</gpx>
