<gpx xmlns:ns3="http://www.garmin.com/xmlschemas/TrackPointExtension/v1" xmlns="http://www.topografix.com/GPX/1/1" xmlns:xsi="http://www.w3.org/2001/XMLSchema-instance" xmlns:ns2="http://www.garmin.com/xmlschemas/GpxExtensions/v3" creator="Garmin Connect" version="1.1" xsi:schemaLocation="http://www.topografix.com/GPX/1/1 http://www.topografix.com/GPX/11.xsd">
  <extensions>
<distance>0.0</distance>
<average_hr>56.0</average_hr>
<average_speed>0.0</average_speed>
<start_time>2020-05-17T23:32:18.900000+00:00</start_time>
<end_time>2020-05-17T23:40:57.360000+00:00</end_time>
<moving_time>518.46</moving_time>
<elapsed_time>518.46</elapsed_time>
</extensions>
<metadata>
    <link href="connect.garmin.com">
      <text>Garmin Connect</text>
    </link>
    <time>2020-05-17T23:32:18.905Z</time>
  </metadata>
  <trk>
    <name>力量训练</name>
    <type>strength_training</type>
    <trkseg/>
  </trk>
</gpx>
