<gpx xmlns:ns3="http://www.garmin.com/xmlschemas/TrackPointExtension/v1" xmlns="http://www.topografix.com/GPX/1/1" xmlns:xsi="http://www.w3.org/2001/XMLSchema-instance" xmlns:ns2="http://www.garmin.com/xmlschemas/GpxExtensions/v3" creator="Garmin Connect" version="1.1" xsi:schemaLocation="http://www.topografix.com/GPX/1/1 http://www.topografix.com/GPX/11.xsd">
  <extensions>
<distance></distance>
<average_hr>99.0</average_hr>
<average_speed>0.0</average_speed>
<start_time>2021-04-26T07:22:39.950000+00:00</start_time>
<end_time>2021-04-26T07:25:04.448000+00:00</end_time>
<moving_time>144.498</moving_time>
<elapsed_time>144.498</elapsed_time>
</extensions>
<metadata>
    <link href="connect.garmin.com">
      <text>Garmin Connect</text>
    </link>
    <time>2021-04-26T07:22:39.955Z</time>
  </metadata>
  <trk>
    <name>瑜伽</name>
    <type>yoga</type>
    <trkseg/>
  </trk>
</gpx>
