<gpx xmlns:ns3="http://www.garmin.com/xmlschemas/TrackPointExtension/v1" xmlns="http://www.topografix.com/GPX/1/1" xmlns:xsi="http://www.w3.org/2001/XMLSchema-instance" xmlns:ns2="http://www.garmin.com/xmlschemas/GpxExtensions/v3" creator="Garmin Connect" version="1.1" xsi:schemaLocation="http://www.topografix.com/GPX/1/1 http://www.topografix.com/GPX/11.xsd">
  <extensions>
<distance>6399.3</distance>
<average_hr>64.0</average_hr>
<average_speed>1.5299999713897705</average_speed>
<start_time>2022-10-31T10:38:14+00:00</start_time>
<end_time>2022-10-31T11:47:56.797000+00:00</end_time>
<moving_time>4035.0</moving_time>
<elapsed_time>4182.797</elapsed_time>
</extensions>
<metadata>
    <link href="connect.garmin.com">
      <text>Garmin Connect</text>
    </link>
    <time>2022-10-31T10:38:14.000Z</time>
  </metadata>
  <trk>
    <name>徒步</name>
    <type>hiking</type>
    <trkseg/>
  </trk>
</gpx>
