<gpx xmlns:ns3="http://www.garmin.com/xmlschemas/TrackPointExtension/v1" xmlns="http://www.topografix.com/GPX/1/1" xmlns:xsi="http://www.w3.org/2001/XMLSchema-instance" xmlns:ns2="http://www.garmin.com/xmlschemas/GpxExtensions/v3" creator="Garmin Connect" version="1.1" xsi:schemaLocation="http://www.topografix.com/GPX/1/1 http://www.topografix.com/GPX/11.xsd">
  <extensions>
<distance>1550.0</distance>
<average_hr></average_hr>
<average_speed>0.7850000262260437</average_speed>
<start_time>2023-02-21T06:34:48+00:00</start_time>
<end_time>2023-02-21T07:08:36.298000+00:00</end_time>
<moving_time>1975.298</moving_time>
<elapsed_time>2047.329</elapsed_time>
</extensions>
<metadata>
    <link href="connect.garmin.com">
      <text>Garmin Connect</text>
    </link>
    <time>2023-02-21T06:34:48.000Z</time>
  </metadata>
  <trk>
    <name>泳池游泳</name>
    <type>lap_swimming</type>
    <trkseg/>
  </trk>
</gpx>
