<gpx xmlns:ns3="http://www.garmin.com/xmlschemas/TrackPointExtension/v1" xmlns="http://www.topografix.com/GPX/1/1" xmlns:xsi="http://www.w3.org/2001/XMLSchema-instance" xmlns:ns2="http://www.garmin.com/xmlschemas/GpxExtensions/v3" creator="Garmin Connect" version="1.1" xsi:schemaLocation="http://www.topografix.com/GPX/1/1 http://www.topografix.com/GPX/11.xsd">
  <extensions>
<distance>1050.0</distance>
<average_hr>115.0</average_hr>
<average_speed>0.6240000128746033</average_speed>
<start_time>2023-02-23T06:56:17+00:00</start_time>
<end_time>2023-02-23T07:26:51.259000+00:00</end_time>
<moving_time>1682.265</moving_time>
<elapsed_time>1849.119</elapsed_time>
</extensions>
<metadata>
    <link href="connect.garmin.com">
      <text>Garmin Connect</text>
    </link>
    <time>2023-02-23T06:56:17.000Z</time>
  </metadata>
  <trk>
    <name>泳池游泳</name>
    <type>lap_swimming</type>
    <trkseg/>
  </trk>
</gpx>
