<gpx xmlns:ns3="http://www.garmin.com/xmlschemas/TrackPointExtension/v1" xmlns="http://www.topografix.com/GPX/1/1" xmlns:xsi="http://www.w3.org/2001/XMLSchema-instance" xmlns:ns2="http://www.garmin.com/xmlschemas/GpxExtensions/v3" creator="Garmin Connect" version="1.1" xsi:schemaLocation="http://www.topografix.com/GPX/1/1 http://www.topografix.com/GPX/11.xsd">
  <extensions>
<distance>2200.0</distance>
<average_hr>108.0</average_hr>
<average_speed>0.7509999871253967</average_speed>
<start_time>2023-09-08T06:29:14.800000+00:00</start_time>
<end_time>2023-09-08T07:20:35.159000+00:00</end_time>
<moving_time>2928.188</moving_time>
<elapsed_time>3144.952</elapsed_time>
</extensions>
<metadata>
    <link href="connect.garmin.com">
      <text>Garmin Connect</text>
    </link>
    <time>2023-09-08T06:29:14.809Z</time>
  </metadata>
  <trk>
    <name>泳池游泳</name>
    <desc>！</desc>
    <type>lap_swimming</type>
    <trkseg/>
  </trk>
</gpx>
