<gpx xmlns:ns3="http://www.garmin.com/xmlschemas/TrackPointExtension/v1" xmlns="http://www.topografix.com/GPX/1/1" xmlns:xsi="http://www.w3.org/2001/XMLSchema-instance" xmlns:ns2="http://www.garmin.com/xmlschemas/GpxExtensions/v3" creator="Garmin Connect" version="1.1" xsi:schemaLocation="http://www.topografix.com/GPX/1/1 http://www.topografix.com/GPX/11.xsd">
  <extensions>
<distance></distance>
<average_hr>85.0</average_hr>
<average_speed></average_speed>
<start_time>2023-05-24T08:46:48+00:00</start_time>
<end_time>2023-05-24T10:03:53.251000+00:00</end_time>
<moving_time>0.0</moving_time>
<elapsed_time>4625.251</elapsed_time>
</extensions>
<metadata>
    <link href="connect.garmin.com">
      <text>Garmin Connect</text>
    </link>
    <time>2023-05-24T08:46:48.000Z</time>
  </metadata>
  <trk>
    <name>室内攀岩</name>
    <desc>和麦苗一起去攀岩，我爬的比他认真多了，但是没人给我拍照，f5+退役，启用955solar!</desc>
    <type>indoor_climbing</type>
    <trkseg/>
  </trk>
</gpx>
