<gpx xmlns:ns3="http://www.garmin.com/xmlschemas/TrackPointExtension/v1" xmlns="http://www.topografix.com/GPX/1/1" xmlns:xsi="http://www.w3.org/2001/XMLSchema-instance" xmlns:ns2="http://www.garmin.com/xmlschemas/GpxExtensions/v3" creator="Garmin Connect" version="1.1" xsi:schemaLocation="http://www.topografix.com/GPX/1/1 http://www.topografix.com/GPX/11.xsd">
  <extensions>
<distance>3330.0</distance>
<average_hr>124.0</average_hr>
<average_speed>2.4760000705718994</average_speed>
<start_time>2023-07-23T07:32:46+00:00</start_time>
<end_time>2023-07-23T07:55:10.803000+00:00</end_time>
<moving_time>1337.604</moving_time>
<elapsed_time>1344.803</elapsed_time>
</extensions>
<metadata>
    <link href="connect.garmin.com">
      <text>Garmin Connect</text>
    </link>
    <time>2023-07-23T07:32:46.000Z</time>
  </metadata>
  <trk>
    <name>威海领上跑步机</name>
    <desc>威海领上望海名居店，儿子学游泳，泳池孩子太多，刷跑步机吧！</desc>
    <type>treadmill_running</type>
    <trkseg/>
  </trk>
</gpx>
