<gpx xmlns:ns3="http://www.garmin.com/xmlschemas/TrackPointExtension/v1" xmlns="http://www.topografix.com/GPX/1/1" xmlns:xsi="http://www.w3.org/2001/XMLSchema-instance" xmlns:ns2="http://www.garmin.com/xmlschemas/GpxExtensions/v3" creator="Garmin Connect" version="1.1" xsi:schemaLocation="http://www.topografix.com/GPX/1/1 http://www.topografix.com/GPX/11.xsd">
  <extensions>
<distance>2021.41</distance>
<average_hr>113.0</average_hr>
<average_speed>2.1989998817443848</average_speed>
<start_time>2023-07-29T08:10:27+00:00</start_time>
<end_time>2023-07-29T08:25:46.126000+00:00</end_time>
<moving_time>869.0</moving_time>
<elapsed_time>922.714</elapsed_time>
</extensions>
<metadata>
    <link href="connect.garmin.com">
      <text>Garmin Connect</text>
    </link>
    <time>2023-07-29T08:10:27.000Z</time>
  </metadata>
  <trk>
    <name>跑步机上跑步</name>
    <type>treadmill_running</type>
    <trkseg/>
  </trk>
</gpx>
