<gpx xmlns:ns3="http://www.garmin.com/xmlschemas/TrackPointExtension/v1" xmlns="http://www.topografix.com/GPX/1/1" xmlns:xsi="http://www.w3.org/2001/XMLSchema-instance" xmlns:ns2="http://www.garmin.com/xmlschemas/GpxExtensions/v3" creator="Garmin Connect" version="1.1" xsi:schemaLocation="http://www.topografix.com/GPX/1/1 http://www.topografix.com/GPX/11.xsd">
  <extensions>
<distance>1000.0</distance>
<average_hr>72.0</average_hr>
<average_speed>0.7519999742507935</average_speed>
<start_time>2023-09-05T03:02:34.240000+00:00</start_time>
<end_time>2023-09-05T04:51:53.524000+00:00</end_time>
<moving_time>1329.318</moving_time>
<elapsed_time>6623.965</elapsed_time>
</extensions>
<metadata>
    <link href="connect.garmin.com">
      <text>Garmin Connect</text>
    </link>
    <time>2023-09-05T03:02:34.246Z</time>
  </metadata>
  <trk>
    <name>泳池游泳</name>
    <desc>陪娃游泳</desc>
    <type>lap_swimming</type>
    <trkseg/>
  </trk>
</gpx>
