<gpx xmlns:ns3="http://www.garmin.com/xmlschemas/TrackPointExtension/v1" xmlns="http://www.topografix.com/GPX/1/1" xmlns:xsi="http://www.w3.org/2001/XMLSchema-instance" xmlns:ns2="http://www.garmin.com/xmlschemas/GpxExtensions/v3" creator="Garmin Connect" version="1.1" xsi:schemaLocation="http://www.topografix.com/GPX/1/1 http://www.topografix.com/GPX/11.xsd">
  <extensions>
<distance>175.0</distance>
<average_hr>62.0</average_hr>
<average_speed>1.3860000371932983</average_speed>
<start_time>2023-10-07T05:16:05.390000+00:00</start_time>
<end_time>2023-10-07T07:18:07.863000+00:00</end_time>
<moving_time>126.253</moving_time>
<elapsed_time>7331.489</elapsed_time>
</extensions>
<metadata>
    <link href="connect.garmin.com">
      <text>Garmin Connect</text>
    </link>
    <time>2023-10-07T05:16:05.398Z</time>
  </metadata>
  <trk>
    <name>泳池游泳</name>
    <type>lap_swimming</type>
    <trkseg/>
  </trk>
</gpx>
