<gpx xmlns:ns3="http://www.garmin.com/xmlschemas/TrackPointExtension/v1" xmlns="http://www.topografix.com/GPX/1/1" xmlns:xsi="http://www.w3.org/2001/XMLSchema-instance" xmlns:ns2="http://www.garmin.com/xmlschemas/GpxExtensions/v3" creator="Garmin Connect" version="1.1" xsi:schemaLocation="http://www.topografix.com/GPX/1/1 http://www.topografix.com/GPX/11.xsd">
  <extensions>
<distance>2000.0</distance>
<average_hr>84.0</average_hr>
<average_speed>0.625</average_speed>
<start_time>2023-08-22T06:49:48.680000+00:00</start_time>
<end_time>2023-08-22T08:29:04.341000+00:00</end_time>
<moving_time>3199.05</moving_time>
<elapsed_time>6529.899</elapsed_time>
</extensions>
<metadata>
    <link href="connect.garmin.com">
      <text>Garmin Connect</text>
    </link>
    <time>2023-08-22T06:49:48.688Z</time>
  </metadata>
  <trk>
    <name>泳池游泳</name>
    <desc>陪娃第一次在北京游泳，我游泳他玩水，说是怕冷，感觉基本白学了</desc>
    <type>lap_swimming</type>
    <trkseg/>
  </trk>
</gpx>
