<gpx xmlns:ns3="http://www.garmin.com/xmlschemas/TrackPointExtension/v1" xmlns="http://www.topografix.com/GPX/1/1" xmlns:xsi="http://www.w3.org/2001/XMLSchema-instance" xmlns:ns2="http://www.garmin.com/xmlschemas/GpxExtensions/v3" creator="Garmin Connect" version="1.1" xsi:schemaLocation="http://www.topografix.com/GPX/1/1 http://www.topografix.com/GPX/11.xsd">
  <extensions>
<distance>36881.53</distance>
<average_hr>113.0</average_hr>
<average_speed>0.7739999890327454</average_speed>
<start_time>2023-11-03T20:59:10+00:00</start_time>
<end_time>2023-11-04T10:13:41.852000+00:00</end_time>
<moving_time>31504.784</moving_time>
<elapsed_time>48179.488</elapsed_time>
</extensions>
<metadata>
    <link href="connect.garmin.com">
      <text>Garmin Connect</text>
    </link>
    <time>2023-11-03T20:59:10.000Z</time>
  </metadata>
  <trk>
    <name>四姑娘山越野赛DNF</name>
    <desc>高海拔难度大，刚刚下过雪，非常难跑。CP4被关门。</desc>
    <type>trail_running</type>
    <trkseg/>
  </trk>
</gpx>
