<gpx xmlns:ns3="http://www.garmin.com/xmlschemas/TrackPointExtension/v1" xmlns="http://www.topografix.com/GPX/1/1" xmlns:xsi="http://www.w3.org/2001/XMLSchema-instance" xmlns:ns2="http://www.garmin.com/xmlschemas/GpxExtensions/v3" creator="Garmin Connect" version="1.1" xsi:schemaLocation="http://www.topografix.com/GPX/1/1 http://www.topografix.com/GPX/11.xsd">
  <extensions>
<distance>999.86</distance>
<average_hr>110.0</average_hr>
<average_speed>1.722000002861023</average_speed>
<start_time>2023-12-14T08:22:28+00:00</start_time>
<end_time>2023-12-14T08:32:08.794000+00:00</end_time>
<moving_time>521.0</moving_time>
<elapsed_time>580.794</elapsed_time>
</extensions>
<metadata>
    <link href="connect.garmin.com">
      <text>Garmin Connect</text>
    </link>
    <time>2023-12-14T08:22:28.000Z</time>
  </metadata>
  <trk>
    <name>乌镇亚朵酒店跑步机和儿子同跑</name>
    <type>treadmill_running</type>
    <trkseg/>
  </trk>
</gpx>
