<gpx xmlns:ns3="http://www.garmin.com/xmlschemas/TrackPointExtension/v1" xmlns="http://www.topografix.com/GPX/1/1" xmlns:xsi="http://www.w3.org/2001/XMLSchema-instance" xmlns:ns2="http://www.garmin.com/xmlschemas/GpxExtensions/v3" creator="Garmin Connect" version="1.1" xsi:schemaLocation="http://www.topografix.com/GPX/1/1 http://www.topografix.com/GPX/11.xsd">
  <extensions>
<distance>1008.96</distance>
<average_hr>101.0</average_hr>
<average_speed>1.7020000219345093</average_speed>
<start_time>2023-12-14T13:28:08+00:00</start_time>
<end_time>2023-12-14T13:38:00.808000+00:00</end_time>
<moving_time>428.0</moving_time>
<elapsed_time>592.808</elapsed_time>
</extensions>
<metadata>
    <link href="connect.garmin.com">
      <text>Garmin Connect</text>
    </link>
    <time>2023-12-14T13:28:08.000Z</time>
  </metadata>
  <trk>
    <name>乌镇亚朵跑步机</name>
    <type>treadmill_running</type>
    <trkseg/>
  </trk>
</gpx>
