<gpx xmlns:ns3="http://www.garmin.com/xmlschemas/TrackPointExtension/v1" xmlns="http://www.topografix.com/GPX/1/1" xmlns:xsi="http://www.w3.org/2001/XMLSchema-instance" xmlns:ns2="http://www.garmin.com/xmlschemas/GpxExtensions/v3" creator="Garmin Connect" version="1.1" xsi:schemaLocation="http://www.topografix.com/GPX/1/1 http://www.topografix.com/GPX/11.xsd">
  <extensions>
<distance></distance>
<average_hr>92.0</average_hr>
<average_speed></average_speed>
<start_time>2024-01-15T06:35:05+00:00</start_time>
<end_time>2024-01-15T07:05:05.238000+00:00</end_time>
<moving_time>1800.238</moving_time>
<elapsed_time>1800.238</elapsed_time>
</extensions>
<metadata>
    <link href="connect.garmin.com">
      <text>Garmin Connect</text>
    </link>
    <time>2024-01-15T06:35:05.000Z</time>
  </metadata>
  <trk>
    <name>瑜伽</name>
    <type>yoga</type>
    <trkseg/>
  </trk>
</gpx>
