<gpx xmlns:ns3="http://www.garmin.com/xmlschemas/TrackPointExtension/v1" xmlns="http://www.topografix.com/GPX/1/1" xmlns:xsi="http://www.w3.org/2001/XMLSchema-instance" xmlns:ns2="http://www.garmin.com/xmlschemas/GpxExtensions/v3" creator="Garmin Connect" version="1.1" xsi:schemaLocation="http://www.topografix.com/GPX/1/1 http://www.topografix.com/GPX/11.xsd">
  <extensions>
<distance>5600.0</distance>
<average_hr></average_hr>
<average_speed>2.2721324977836566</average_speed>
<start_time>2018-03-19T00:54:40.350000+00:00</start_time>
<end_time>2018-03-19T01:35:44.995000+00:00</end_time>
<moving_time>2462.0</moving_time>
<elapsed_time>2474.233</elapsed_time>
</extensions>
<metadata>
    <link href="connect.garmin.com">
      <text>Garmin Connect</text>
    </link>
    <time>2018-03-19T00:54:40.350Z</time>
  </metadata>
  <trk>
    <name>上境灵岩酒店.都江堰.跑步机</name>
    <type>treadmill_running</type>
    <trkseg/>
  </trk>
</gpx>
