<gpx xmlns:ns3="http://www.garmin.com/xmlschemas/TrackPointExtension/v1" xmlns="http://www.topografix.com/GPX/1/1" xmlns:xsi="http://www.w3.org/2001/XMLSchema-instance" xmlns:ns2="http://www.garmin.com/xmlschemas/GpxExtensions/v3" creator="Garmin Connect" version="1.1" xsi:schemaLocation="http://www.topografix.com/GPX/1/1 http://www.topografix.com/GPX/11.xsd">
  <extensions>
<distance>10010.0</distance>
<average_hr></average_hr>
<average_speed>2.247828353042439</average_speed>
<start_time>2018-03-20T00:01:50.580000+00:00</start_time>
<end_time>2018-03-20T01:16:03.767000+00:00</end_time>
<moving_time>4431.0</moving_time>
<elapsed_time>4454.322</elapsed_time>
</extensions>
<metadata>
    <link href="connect.garmin.com">
      <text>Garmin Connect</text>
    </link>
    <time>2018-03-20T00:01:50.583Z</time>
  </metadata>
  <trk>
    <name>上境灵岩酒店.都江堰.跑步机</name>
    <type>treadmill_running</type>
    <trkseg/>
  </trk>
</gpx>
