<gpx xmlns:ns3="http://www.garmin.com/xmlschemas/TrackPointExtension/v1" xmlns="http://www.topografix.com/GPX/1/1" xmlns:xsi="http://www.w3.org/2001/XMLSchema-instance" xmlns:ns2="http://www.garmin.com/xmlschemas/GpxExtensions/v3" creator="Garmin Connect" version="1.1" xsi:schemaLocation="http://www.topografix.com/GPX/1/1 http://www.topografix.com/GPX/11.xsd">
  <extensions>
<distance>10010.0</distance>
<average_hr>133.0</average_hr>
<average_speed>2.307978388468501</average_speed>
<start_time>2018-03-20T23:59:05.700000+00:00</start_time>
<end_time>2018-03-21T01:11:22.829000+00:00</end_time>
<moving_time>4300.0</moving_time>
<elapsed_time>4337.129</elapsed_time>
</extensions>
<metadata>
    <link href="connect.garmin.com">
      <text>Garmin Connect</text>
    </link>
    <time>2018-03-20T23:59:05.709Z</time>
  </metadata>
  <trk>
    <name>都江堰上境灵岩酒店.跑步机</name>
    <type>treadmill_running</type>
    <trkseg/>
  </trk>
</gpx>
