<gpx xmlns:ns3="http://www.garmin.com/xmlschemas/TrackPointExtension/v1" xmlns="http://www.topografix.com/GPX/1/1" xmlns:xsi="http://www.w3.org/2001/XMLSchema-instance" xmlns:ns2="http://www.garmin.com/xmlschemas/GpxExtensions/v3" creator="Garmin Connect" version="1.1" xsi:schemaLocation="http://www.topografix.com/GPX/1/1 http://www.topografix.com/GPX/11.xsd">
  <extensions>
<distance>2004.16</distance>
<average_hr>121.0</average_hr>
<average_speed>2.7490000724792476</average_speed>
<start_time>2024-04-03T22:48:14+00:00</start_time>
<end_time>2024-04-03T23:00:22.928000+00:00</end_time>
<moving_time>722.865</moving_time>
<elapsed_time>728.928</elapsed_time>
</extensions>
<metadata>
    <link href="connect.garmin.com">
      <text>Garmin Connect</text>
    </link>
    <time>2024-04-03T22:48:14.000Z</time>
  </metadata>
  <trk>
    <name>BE Resort 跑步机</name>
    <desc>外面太热这里凉快</desc>
    <type>treadmill_running</type>
    <trkseg/>
  </trk>
</gpx>
