<gpx xmlns:ns3="http://www.garmin.com/xmlschemas/TrackPointExtension/v1" xmlns="http://www.topografix.com/GPX/1/1" xmlns:xsi="http://www.w3.org/2001/XMLSchema-instance" xmlns:ns2="http://www.garmin.com/xmlschemas/GpxExtensions/v3" creator="Garmin Connect" version="1.1" xsi:schemaLocation="http://www.topografix.com/GPX/1/1 http://www.topografix.com/GPX/11.xsd">
  <extensions>
<distance>5000.0</distance>
<average_hr></average_hr>
<average_speed>2.3620001417200087</average_speed>
<start_time>2018-05-06T01:21:56+00:00</start_time>
<end_time>2018-05-06T01:57:12.850000+00:00</end_time>
<moving_time>2107.0</moving_time>
<elapsed_time>2116.85</elapsed_time>
</extensions>
<metadata>
    <link href="connect.garmin.com">
      <text>Garmin Connect</text>
    </link>
    <time>2018-05-06T01:21:56.000Z</time>
  </metadata>
  <trk>
    <name>广西马山加国农居跑步机</name>
    <type>treadmill_running</type>
    <trkseg/>
  </trk>
</gpx>
