<gpx xmlns:ns3="http://www.garmin.com/xmlschemas/TrackPointExtension/v1" xmlns="http://www.topografix.com/GPX/1/1" xmlns:xsi="http://www.w3.org/2001/XMLSchema-instance" xmlns:ns2="http://www.garmin.com/xmlschemas/GpxExtensions/v3" creator="Garmin Connect" version="1.1" xsi:schemaLocation="http://www.topografix.com/GPX/1/1 http://www.topografix.com/GPX/11.xsd">
  <extensions>
<distance>2000.0</distance>
<average_hr></average_hr>
<average_speed>0.5977113036472045</average_speed>
<start_time>2018-06-22T06:48:30+00:00</start_time>
<end_time>2018-06-22T07:44:16.097000+00:00</end_time>
<moving_time>3231.786</moving_time>
<elapsed_time>3351.764</elapsed_time>
</extensions>
<metadata>
    <link href="connect.garmin.com">
      <text>Garmin Connect</text>
    </link>
    <time>2018-06-22T06:48:30.000Z</time>
  </metadata>
  <trk>
    <name>天奥健身游泳</name>
    <type>lap_swimming</type>
    <trkseg/>
  </trk>
</gpx>
