<gpx xmlns:ns3="http://www.garmin.com/xmlschemas/TrackPointExtension/v1" xmlns="http://www.topografix.com/GPX/1/1" xmlns:xsi="http://www.w3.org/2001/XMLSchema-instance" xmlns:ns2="http://www.garmin.com/xmlschemas/GpxExtensions/v3" creator="Garmin Connect" version="1.1" xsi:schemaLocation="http://www.topografix.com/GPX/1/1 http://www.topografix.com/GPX/11.xsd">
  <extensions>
<distance>475.0</distance>
<average_hr>68.0</average_hr>
<average_speed>1.2730000019073486</average_speed>
<start_time>2024-08-08T07:19:31+00:00</start_time>
<end_time>2024-08-08T09:28:51.338000+00:00</end_time>
<moving_time>373.089</moving_time>
<elapsed_time>8332.884</elapsed_time>
</extensions>
<metadata>
    <link href="connect.garmin.com">
      <text>Garmin Connect</text>
    </link>
    <time>2024-08-08T07:19:31.000Z</time>
  </metadata>
  <trk>
    <name>陪三娃泳池戏水</name>
    <type>lap_swimming</type>
    <trkseg/>
  </trk>
</gpx>
