<gpx xmlns:ns3="http://www.garmin.com/xmlschemas/TrackPointExtension/v1" xmlns="http://www.topografix.com/GPX/1/1" xmlns:xsi="http://www.w3.org/2001/XMLSchema-instance" xmlns:ns2="http://www.garmin.com/xmlschemas/GpxExtensions/v3" creator="Garmin Connect" version="1.1" xsi:schemaLocation="http://www.topografix.com/GPX/1/1 http://www.topografix.com/GPX/11.xsd">
  <extensions>
<distance>2283.92</distance>
<average_hr>102.0</average_hr>
<average_speed>1.878999948501587</average_speed>
<start_time>2024-09-17T00:23:59+00:00</start_time>
<end_time>2024-09-17T00:44:14.386000+00:00</end_time>
<moving_time>1192.0</moving_time>
<elapsed_time>1215.386</elapsed_time>
</extensions>
<metadata>
    <link href="connect.garmin.com">
      <text>Garmin Connect</text>
    </link>
    <time>2024-09-17T00:23:59.000Z</time>
  </metadata>
  <trk>
    <name>沈阳欢朋酒店跑步机</name>
    <desc>酒店跑步机打卡，主要是为了中秋节徽章</desc>
    <type>treadmill_running</type>
    <trkseg/>
  </trk>
</gpx>
