<gpx xmlns:ns3="http://www.garmin.com/xmlschemas/TrackPointExtension/v1" xmlns="http://www.topografix.com/GPX/1/1" xmlns:xsi="http://www.w3.org/2001/XMLSchema-instance" xmlns:ns2="http://www.garmin.com/xmlschemas/GpxExtensions/v3" creator="Garmin Connect" version="1.1" xsi:schemaLocation="http://www.topografix.com/GPX/1/1 http://www.topografix.com/GPX/11.xsd">
  <extensions>
<distance>43078.76</distance>
<average_hr>136.0</average_hr>
<average_speed>1.7619999647140505</average_speed>
<start_time>2024-09-22T00:30:04+00:00</start_time>
<end_time>2024-09-22T07:17:30.607000+00:00</end_time>
<moving_time>22202.84</moving_time>
<elapsed_time>24467.754</elapsed_time>
</extensions>
<metadata>
    <link href="connect.garmin.com">
      <text>Garmin Connect</text>
    </link>
    <time>2024-09-22T00:30:04.000Z</time>
  </metadata>
  <trk>
    <name>M080山东五莲山马2024</name>
    <type>trail_running</type>
    <trkseg/>
  </trk>
</gpx>
