<gpx xmlns:ns3="http://www.garmin.com/xmlschemas/TrackPointExtension/v1" xmlns="http://www.topografix.com/GPX/1/1" xmlns:xsi="http://www.w3.org/2001/XMLSchema-instance" xmlns:ns2="http://www.garmin.com/xmlschemas/GpxExtensions/v3" creator="Garmin Connect" version="1.1" xsi:schemaLocation="http://www.topografix.com/GPX/1/1 http://www.topografix.com/GPX/11.xsd">
  <extensions>
<distance>8501.57</distance>
<average_hr>138.0</average_hr>
<average_speed>2.344289991923344</average_speed>
<start_time>2016-04-20T07:32:50+00:00</start_time>
<end_time>2016-04-20T08:33:16.501000+00:00</end_time>
<moving_time>3608.0</moving_time>
<elapsed_time>3645.399</elapsed_time>
</extensions>
<metadata>
    <link href="connect.garmin.com">
      <text>Garmin Connect</text>
    </link>
    <time>2016-04-20T07:32:50.000Z</time>
  </metadata>
  <trk>
    <name>辽宁大厦浩沙跑步机</name>
    <type>treadmill_running</type>
    <trkseg/>
  </trk>
</gpx>
