<gpx xmlns:ns3="http://www.garmin.com/xmlschemas/TrackPointExtension/v1" xmlns="http://www.topografix.com/GPX/1/1" xmlns:xsi="http://www.w3.org/2001/XMLSchema-instance" xmlns:ns2="http://www.garmin.com/xmlschemas/GpxExtensions/v3" creator="Garmin Connect" version="1.1" xsi:schemaLocation="http://www.topografix.com/GPX/1/1 http://www.topografix.com/GPX/11.xsd">
  <extensions>
<distance>7735.36</distance>
<average_hr>137.0</average_hr>
<average_speed>2.4221503560880664</average_speed>
<start_time>2016-05-10T07:16:13+00:00</start_time>
<end_time>2016-05-10T08:09:26.592000+00:00</end_time>
<moving_time>3173.0</moving_time>
<elapsed_time>3219.588</elapsed_time>
</extensions>
<metadata>
    <link href="connect.garmin.com">
      <text>Garmin Connect</text>
    </link>
    <time>2016-05-10T07:16:13.000Z</time>
  </metadata>
  <trk>
    <name>辽宁大厦浩沙跑步机</name>
    <type>treadmill_running</type>
    <trkseg/>
  </trk>
</gpx>
