<gpx xmlns:ns3="http://www.garmin.com/xmlschemas/TrackPointExtension/v1" xmlns="http://www.topografix.com/GPX/1/1" xmlns:xsi="http://www.w3.org/2001/XMLSchema-instance" xmlns:ns2="http://www.garmin.com/xmlschemas/GpxExtensions/v3" creator="Garmin Connect" version="1.1" xsi:schemaLocation="http://www.topografix.com/GPX/1/1 http://www.topografix.com/GPX/11.xsd">
  <extensions>
<distance>5008.08</distance>
<average_hr>124.0</average_hr>
<average_speed>2.3780068271637353</average_speed>
<start_time>2016-05-13T07:50:02+00:00</start_time>
<end_time>2016-05-13T08:25:07.999000+00:00</end_time>
<moving_time>2086.0</moving_time>
<elapsed_time>2119.995</elapsed_time>
</extensions>
<metadata>
    <link href="connect.garmin.com">
      <text>Garmin Connect</text>
    </link>
    <time>2016-05-13T07:50:02.000Z</time>
  </metadata>
  <trk>
    <name>辽宁大厦浩沙跑步机</name>
    <type>treadmill_running</type>
    <trkseg/>
  </trk>
</gpx>
