<gpx xmlns:ns3="http://www.garmin.com/xmlschemas/TrackPointExtension/v1" xmlns="http://www.topografix.com/GPX/1/1" xmlns:xsi="http://www.w3.org/2001/XMLSchema-instance" xmlns:ns2="http://www.garmin.com/xmlschemas/GpxExtensions/v3" creator="Garmin Connect" version="1.1" xsi:schemaLocation="http://www.topografix.com/GPX/1/1 http://www.topografix.com/GPX/11.xsd">
  <extensions>
<distance>1025.0</distance>
<average_hr></average_hr>
<average_speed>0.7278413149713762</average_speed>
<start_time>2016-05-16T08:09:20+00:00</start_time>
<end_time>2016-05-16T08:32:48.274000+00:00</end_time>
<moving_time>1408.274</moving_time>
<elapsed_time>1413.599</elapsed_time>
</extensions>
<metadata>
    <link href="connect.garmin.com">
      <text>Garmin Connect</text>
    </link>
    <time>2016-05-16T08:09:20.000Z</time>
  </metadata>
  <trk>
    <name>泳道游泳</name>
    <type>lap_swimming</type>
    <trkseg/>
  </trk>
</gpx>
