<gpx xmlns:ns3="http://www.garmin.com/xmlschemas/TrackPointExtension/v1" xmlns="http://www.topografix.com/GPX/1/1" xmlns:xsi="http://www.w3.org/2001/XMLSchema-instance" xmlns:ns2="http://www.garmin.com/xmlschemas/GpxExtensions/v3" creator="Garmin Connect" version="1.1" xsi:schemaLocation="http://www.topografix.com/GPX/1/1 http://www.topografix.com/GPX/11.xsd">
  <extensions>
<distance>1125.0</distance>
<average_hr></average_hr>
<average_speed>0.5758178020343515</average_speed>
<start_time>2016-01-20T09:01:45+00:00</start_time>
<end_time>2016-01-20T09:34:18.743000+00:00</end_time>
<moving_time>1953.743</moving_time>
<elapsed_time>1961.338</elapsed_time>
</extensions>
<metadata>
    <link href="connect.garmin.com">
      <text>Garmin Connect</text>
    </link>
    <time>2016-01-20T09:01:45.000Z</time>
  </metadata>
  <trk>
    <name>辽宁大厦浩沙</name>
    <type>lap_swimming</type>
    <trkseg/>
  </trk>
</gpx>
