<gpx xmlns:ns3="http://www.garmin.com/xmlschemas/TrackPointExtension/v1" xmlns="http://www.topografix.com/GPX/1/1" xmlns:xsi="http://www.w3.org/2001/XMLSchema-instance" xmlns:ns2="http://www.garmin.com/xmlschemas/GpxExtensions/v3" creator="Garmin Connect" version="1.1" xsi:schemaLocation="http://www.topografix.com/GPX/1/1 http://www.topografix.com/GPX/11.xsd">
  <extensions>
<distance>10515.43</distance>
<average_hr>121.0</average_hr>
<average_speed>3.2290568223203913</average_speed>
<start_time>2016-01-27T07:30:39+00:00</start_time>
<end_time>2016-01-27T08:24:55.502000+00:00</end_time>
<moving_time>3153.0</moving_time>
<elapsed_time>3256.502</elapsed_time>
</extensions>
<metadata>
    <link href="connect.garmin.com">
      <text>Garmin Connect</text>
    </link>
    <time>2016-01-27T07:30:39.000Z</time>
  </metadata>
  <trk>
    <name>辽宁大厦浩沙</name>
    <type>treadmill_running</type>
    <trkseg/>
  </trk>
</gpx>
