<gpx xmlns:ns3="http://www.garmin.com/xmlschemas/TrackPointExtension/v1" xmlns="http://www.topografix.com/GPX/1/1" xmlns:xsi="http://www.w3.org/2001/XMLSchema-instance" xmlns:ns2="http://www.garmin.com/xmlschemas/GpxExtensions/v3" creator="Garmin Connect" version="1.1" xsi:schemaLocation="http://www.topografix.com/GPX/1/1 http://www.topografix.com/GPX/11.xsd">
  <extensions>
<distance>12121.24</distance>
<average_hr>131.0</average_hr>
<average_speed>3.280515756908338</average_speed>
<start_time>2016-01-29T08:06:07+00:00</start_time>
<end_time>2016-01-29T09:07:41.919000+00:00</end_time>
<moving_time>3602.0</moving_time>
<elapsed_time>3694.919</elapsed_time>
</extensions>
<metadata>
    <link href="connect.garmin.com">
      <text>Garmin Connect</text>
    </link>
    <time>2016-01-29T08:06:07.000Z</time>
  </metadata>
  <trk>
    <name>辽宁大厦浩沙</name>
    <type>treadmill_running</type>
    <trkseg/>
  </trk>
</gpx>
