<gpx xmlns:ns3="http://www.garmin.com/xmlschemas/TrackPointExtension/v1" xmlns="http://www.topografix.com/GPX/1/1" xmlns:xsi="http://www.w3.org/2001/XMLSchema-instance" xmlns:ns2="http://www.garmin.com/xmlschemas/GpxExtensions/v3" creator="Garmin Connect" version="1.1" xsi:schemaLocation="http://www.topografix.com/GPX/1/1 http://www.topografix.com/GPX/11.xsd">
  <extensions>
<distance>5239.53</distance>
<average_hr>126.0</average_hr>
<average_speed>2.1038613736154526</average_speed>
<start_time>2016-03-11T13:07:28+00:00</start_time>
<end_time>2016-03-11T13:48:58.435000+00:00</end_time>
<moving_time>2478.0</moving_time>
<elapsed_time>3000.64</elapsed_time>
</extensions>
<metadata>
    <link href="connect.garmin.com">
      <text>Garmin Connect</text>
    </link>
    <time>2016-03-11T13:07:28.000Z</time>
  </metadata>
  <trk>
    <name>辽宁大厦浩沙跑步机</name>
    <type>treadmill_running</type>
    <trkseg/>
  </trk>
</gpx>
