<gpx xmlns:ns3="http://www.garmin.com/xmlschemas/TrackPointExtension/v1" xmlns="http://www.topografix.com/GPX/1/1" xmlns:xsi="http://www.w3.org/2001/XMLSchema-instance" xmlns:ns2="http://www.garmin.com/xmlschemas/GpxExtensions/v3" creator="Garmin Connect" version="1.1" xsi:schemaLocation="http://www.topografix.com/GPX/1/1 http://www.topografix.com/GPX/11.xsd">
  <extensions>
<distance>6464.23</distance>
<average_hr>131.0</average_hr>
<average_speed>2.335387080971174</average_speed>
<start_time>2016-03-23T08:45:24+00:00</start_time>
<end_time>2016-03-23T09:31:31.948000+00:00</end_time>
<moving_time>2767.0</moving_time>
<elapsed_time>2767.948</elapsed_time>
</extensions>
<metadata>
    <link href="connect.garmin.com">
      <text>Garmin Connect</text>
    </link>
    <time>2016-03-23T08:45:24.000Z</time>
  </metadata>
  <trk>
    <name>辽宁大厦浩沙跑步机</name>
    <type>treadmill_running</type>
    <trkseg/>
  </trk>
</gpx>
