<gpx xmlns:ns3="http://www.garmin.com/xmlschemas/TrackPointExtension/v1" xmlns="http://www.topografix.com/GPX/1/1" xmlns:xsi="http://www.w3.org/2001/XMLSchema-instance" xmlns:ns2="http://www.garmin.com/xmlschemas/GpxExtensions/v3" creator="Garmin Connect" version="1.1" xsi:schemaLocation="http://www.topografix.com/GPX/1/1 http://www.topografix.com/GPX/11.xsd">
  <extensions>
<distance></distance>
<average_hr>95.0</average_hr>
<average_speed></average_speed>
<start_time>2025-01-11T02:55:09+00:00</start_time>
<end_time>2025-01-11T03:50:25.940000+00:00</end_time>
<moving_time>0.0</moving_time>
<elapsed_time>3975.377</elapsed_time>
</extensions>
<metadata>
    <link href="connect.garmin.com">
      <text>Garmin Connect</text>
    </link>
    <time>2025-01-11T02:55:09.000Z</time>
  </metadata>
  <trk>
    <name>中攀ALPS岩馆攀岩</name>
    <desc>麦苗芸豆和奶酪三个小朋友来爬墙，老父亲也不能闲着</desc>
    <type>indoor_climbing</type>
    <trkseg/>
  </trk>
</gpx>
