<gpx xmlns:ns3="http://www.garmin.com/xmlschemas/TrackPointExtension/v1" xmlns="http://www.topografix.com/GPX/1/1" xmlns:xsi="http://www.w3.org/2001/XMLSchema-instance" xmlns:ns2="http://www.garmin.com/xmlschemas/GpxExtensions/v3" creator="Garmin Connect" version="1.1" xsi:schemaLocation="http://www.topografix.com/GPX/1/1 http://www.topografix.com/GPX/11.xsd">
  <extensions>
<distance>775.0</distance>
<average_hr>78.0</average_hr>
<average_speed>0.8149999976158142</average_speed>
<start_time>2025-02-02T02:57:41+00:00</start_time>
<end_time>2025-02-02T04:47:43.626000+00:00</end_time>
<moving_time>950.449</moving_time>
<elapsed_time>6617.202</elapsed_time>
</extensions>
<metadata>
    <link href="connect.garmin.com">
      <text>Garmin Connect</text>
    </link>
    <time>2025-02-02T02:57:41.000Z</time>
  </metadata>
  <trk>
    <name>高丽亚陪娃玩水</name>
    <type>lap_swimming</type>
    <trkseg/>
  </trk>
</gpx>
