<gpx xmlns:ns3="http://www.garmin.com/xmlschemas/TrackPointExtension/v1" xmlns="http://www.topografix.com/GPX/1/1" xmlns:xsi="http://www.w3.org/2001/XMLSchema-instance" xmlns:ns2="http://www.garmin.com/xmlschemas/GpxExtensions/v3" creator="Garmin Connect" version="1.1" xsi:schemaLocation="http://www.topografix.com/GPX/1/1 http://www.topografix.com/GPX/11.xsd">
  <extensions>
<distance>425.0</distance>
<average_hr>76.0</average_hr>
<average_speed>0.9819999933242798</average_speed>
<start_time>2025-02-02T11:23:34+00:00</start_time>
<end_time>2025-02-02T12:41:58.734000+00:00</end_time>
<moving_time>432.879</moving_time>
<elapsed_time>4725.056</elapsed_time>
</extensions>
<metadata>
    <link href="connect.garmin.com">
      <text>Garmin Connect</text>
    </link>
    <time>2025-02-02T11:23:34.000Z</time>
  </metadata>
  <trk>
    <name>泳池游泳</name>
    <type>lap_swimming</type>
    <trkseg/>
  </trk>
</gpx>
