<gpx xmlns:ns3="http://www.garmin.com/xmlschemas/TrackPointExtension/v1" xmlns="http://www.topografix.com/GPX/1/1" xmlns:xsi="http://www.w3.org/2001/XMLSchema-instance" xmlns:ns2="http://www.garmin.com/xmlschemas/GpxExtensions/v3" creator="Garmin Connect" version="1.1" xsi:schemaLocation="http://www.topografix.com/GPX/1/1 http://www.topografix.com/GPX/11.xsd">
  <extensions>
<distance>10020.0</distance>
<average_hr></average_hr>
<average_speed>2.369209357951357</average_speed>
<start_time>2018-10-11T10:49:53+00:00</start_time>
<end_time>2018-10-11T12:00:22.259000+00:00</end_time>
<moving_time>4217.0</moving_time>
<elapsed_time>4229.259</elapsed_time>
</extensions>
<metadata>
    <link href="connect.garmin.com">
      <text>Garmin Connect</text>
    </link>
    <time>2018-10-11T10:49:53.000Z</time>
  </metadata>
  <trk>
    <name>斯里兰卡科伦坡Gatesway酒店跑步机</name>
    <type>treadmill_running</type>
    <trkseg/>
  </trk>
</gpx>
