<gpx xmlns:ns3="http://www.garmin.com/xmlschemas/TrackPointExtension/v1" xmlns="http://www.topografix.com/GPX/1/1" xmlns:xsi="http://www.w3.org/2001/XMLSchema-instance" xmlns:ns2="http://www.garmin.com/xmlschemas/GpxExtensions/v3" creator="Garmin Connect" version="1.1" xsi:schemaLocation="http://www.topografix.com/GPX/1/1 http://www.topografix.com/GPX/11.xsd">
  <extensions>
<distance>3140.0</distance>
<average_hr></average_hr>
<average_speed>2.358320515285522</average_speed>
<start_time>2018-10-16T00:40:59+00:00</start_time>
<end_time>2018-10-16T01:03:10.456000+00:00</end_time>
<moving_time>1326.0</moving_time>
<elapsed_time>1331.456</elapsed_time>
</extensions>
<metadata>
    <link href="connect.garmin.com">
      <text>Garmin Connect</text>
    </link>
    <time>2018-10-16T00:40:59.000Z</time>
  </metadata>
  <trk>
    <name>澳大利亚墨尔本Bayview酒店跑步机</name>
    <type>treadmill_running</type>
    <trkseg/>
  </trk>
</gpx>
