<gpx xmlns:ns3="http://www.garmin.com/xmlschemas/TrackPointExtension/v1" xmlns="http://www.topografix.com/GPX/1/1" xmlns:xsi="http://www.w3.org/2001/XMLSchema-instance" xmlns:ns2="http://www.garmin.com/xmlschemas/GpxExtensions/v3" creator="Garmin Connect" version="1.1" xsi:schemaLocation="http://www.topografix.com/GPX/1/1 http://www.topografix.com/GPX/11.xsd">
  <extensions>
<distance>5311.84</distance>
<average_hr>116.0</average_hr>
<average_speed>2.3580000400543213</average_speed>
<start_time>2025-05-16T12:39:36+00:00</start_time>
<end_time>2025-05-16T13:17:08.277000+00:00</end_time>
<moving_time>2245.4</moving_time>
<elapsed_time>2252.277</elapsed_time>
</extensions>
<metadata>
    <link href="connect.garmin.com">
      <text>Garmin Connect</text>
    </link>
    <time>2025-05-16T12:39:36.000Z</time>
  </metadata>
  <trk>
    <name>沈阳希尔顿酒店跑步机</name>
    <desc>喝了一瓶龙泉山干啤，吃完饭回到酒店已经八点多，好像还下小雨了，本想继续在沈阳留下轨迹只好去了健身房，希望明天早上能起的早！</desc>
    <type>treadmill_running</type>
    <trkseg/>
  </trk>
</gpx>
