<gpx xmlns:ns3="http://www.garmin.com/xmlschemas/TrackPointExtension/v1" xmlns="http://www.topografix.com/GPX/1/1" xmlns:xsi="http://www.w3.org/2001/XMLSchema-instance" xmlns:ns2="http://www.garmin.com/xmlschemas/GpxExtensions/v3" creator="Garmin Connect" version="1.1" xsi:schemaLocation="http://www.topografix.com/GPX/1/1 http://www.topografix.com/GPX/11.xsd">
  <extensions>
<distance>3003.6</distance>
<average_hr>125.0</average_hr>
<average_speed>2.4709999561309814</average_speed>
<start_time>2025-05-20T13:18:13+00:00</start_time>
<end_time>2025-05-20T13:38:28.351000+00:00</end_time>
<moving_time>1212.794</moving_time>
<elapsed_time>1215.351</elapsed_time>
</extensions>
<metadata>
    <link href="connect.garmin.com">
      <text>Garmin Connect</text>
    </link>
    <time>2025-05-20T13:18:13.000Z</time>
  </metadata>
  <trk>
    <name>轻刻健身跑步机 08</name>
    <type>treadmill_running</type>
    <trkseg/>
  </trk>
</gpx>
