<gpx xmlns:ns3="http://www.garmin.com/xmlschemas/TrackPointExtension/v1" xmlns="http://www.topografix.com/GPX/1/1" xmlns:xsi="http://www.w3.org/2001/XMLSchema-instance" xmlns:ns2="http://www.garmin.com/xmlschemas/GpxExtensions/v3" creator="Garmin Connect" version="1.1" xsi:schemaLocation="http://www.topografix.com/GPX/1/1 http://www.topografix.com/GPX/11.xsd">
  <extensions>
<distance>2004.26</distance>
<average_hr>116.0</average_hr>
<average_speed>2.312000036239624</average_speed>
<start_time>2025-05-21T13:05:55+00:00</start_time>
<end_time>2025-05-21T13:20:21.960000+00:00</end_time>
<moving_time>859.642</moving_time>
<elapsed_time>866.96</elapsed_time>
</extensions>
<metadata>
    <link href="connect.garmin.com">
      <text>Garmin Connect</text>
    </link>
    <time>2025-05-21T13:05:55.000Z</time>
  </metadata>
  <trk>
    <name>轻刻健身跑步机 10</name>
    <type>treadmill_running</type>
    <trkseg/>
  </trk>
</gpx>
