<gpx xmlns:ns3="http://www.garmin.com/xmlschemas/TrackPointExtension/v1" xmlns="http://www.topografix.com/GPX/1/1" xmlns:xsi="http://www.w3.org/2001/XMLSchema-instance" xmlns:ns2="http://www.garmin.com/xmlschemas/GpxExtensions/v3" creator="Garmin Connect" version="1.1" xsi:schemaLocation="http://www.topografix.com/GPX/1/1 http://www.topografix.com/GPX/11.xsd">
  <extensions>
<distance>5010.23</distance>
<average_hr>109.0</average_hr>
<average_speed>2.2699999809265137</average_speed>
<start_time>2025-06-09T12:10:42+00:00</start_time>
<end_time>2025-06-09T12:47:28.884000+00:00</end_time>
<moving_time>2162.239</moving_time>
<elapsed_time>2206.884</elapsed_time>
</extensions>
<metadata>
    <link href="connect.garmin.com">
      <text>Garmin Connect</text>
    </link>
    <time>2025-06-09T12:10:42.000Z</time>
  </metadata>
  <trk>
    <name>轻刻健身跑步机 17</name>
    <desc/>
    <type>treadmill_running</type>
    <trkseg/>
  </trk>
</gpx>
