<gpx xmlns:ns3="http://www.garmin.com/xmlschemas/TrackPointExtension/v1" xmlns="http://www.topografix.com/GPX/1/1" xmlns:xsi="http://www.w3.org/2001/XMLSchema-instance" xmlns:ns2="http://www.garmin.com/xmlschemas/GpxExtensions/v3" creator="Garmin Connect" version="1.1" xsi:schemaLocation="http://www.topografix.com/GPX/1/1 http://www.topografix.com/GPX/11.xsd">
  <extensions>
<distance>6308.99</distance>
<average_hr>116.0</average_hr>
<average_speed>2.4730000495910645</average_speed>
<start_time>2025-06-10T12:38:39+00:00</start_time>
<end_time>2025-06-10T13:21:10.287000+00:00</end_time>
<moving_time>2544.802</moving_time>
<elapsed_time>2551.287</elapsed_time>
</extensions>
<metadata>
    <link href="connect.garmin.com">
      <text>Garmin Connect</text>
    </link>
    <time>2025-06-10T12:38:39.000Z</time>
  </metadata>
  <trk>
    <name>轻刻健身跑步机 18</name>
    <desc>健身房有三个人，两中国女一黑人男，在以 2.5/3.5K／H 的速度溜跑步机看手机，在旁边等半小时才有跑步机可用，被动做了半小时的器械。</desc>
    <type>treadmill_running</type>
    <trkseg/>
  </trk>
</gpx>
