<gpx xmlns:ns3="http://www.garmin.com/xmlschemas/TrackPointExtension/v1" xmlns="http://www.topografix.com/GPX/1/1" xmlns:xsi="http://www.w3.org/2001/XMLSchema-instance" xmlns:ns2="http://www.garmin.com/xmlschemas/GpxExtensions/v3" creator="Garmin Connect" version="1.1" xsi:schemaLocation="http://www.topografix.com/GPX/1/1 http://www.topografix.com/GPX/11.xsd">
  <extensions>
<distance>7216.15</distance>
<average_hr>116.0</average_hr>
<average_speed>2.484999895095825</average_speed>
<start_time>2025-06-11T12:00:23+00:00</start_time>
<end_time>2025-06-11T12:48:47.081000+00:00</end_time>
<moving_time>2889.795</moving_time>
<elapsed_time>2904.081</elapsed_time>
</extensions>
<metadata>
    <link href="connect.garmin.com">
      <text>Garmin Connect</text>
    </link>
    <time>2025-06-11T12:00:23.000Z</time>
  </metadata>
  <trk>
    <name>轻刻健身跑步机 19</name>
    <desc>为了拿 超越昨天的徽章，连续五天，每天至少多跑五分钟，今天跑步机上又有好几个以 3K/H 玩手机的，好在我抢到了跑步机……五台跑步机上都是在玩手机溜达汗都不出的</desc>
    <type>treadmill_running</type>
    <trkseg/>
  </trk>
</gpx>
