<gpx xmlns:ns3="http://www.garmin.com/xmlschemas/TrackPointExtension/v1" xmlns="http://www.topografix.com/GPX/1/1" xmlns:xsi="http://www.w3.org/2001/XMLSchema-instance" xmlns:ns2="http://www.garmin.com/xmlschemas/GpxExtensions/v3" creator="Garmin Connect" version="1.1" xsi:schemaLocation="http://www.topografix.com/GPX/1/1 http://www.topografix.com/GPX/11.xsd">
  <extensions>
<distance>7590.2</distance>
<average_hr>114.0</average_hr>
<average_speed>2.3380000591278076</average_speed>
<start_time>2025-06-13T10:27:25+00:00</start_time>
<end_time>2025-06-13T11:21:30.884000+00:00</end_time>
<moving_time>3236.955</moving_time>
<elapsed_time>3247.393</elapsed_time>
</extensions>
<metadata>
    <link href="connect.garmin.com">
      <text>Garmin Connect</text>
    </link>
    <time>2025-06-13T10:27:25.000Z</time>
  </metadata>
  <trk>
    <name>轻刻健身跑步机 20</name>
    <desc>和张梁，宋红喝酒前，赶快到健身房提前跑，也没拿到超越昨天的徽章</desc>
    <type>treadmill_running</type>
    <trkseg/>
  </trk>
</gpx>
