<gpx xmlns:ns3="http://www.garmin.com/xmlschemas/TrackPointExtension/v1" xmlns="http://www.topografix.com/GPX/1/1" xmlns:xsi="http://www.w3.org/2001/XMLSchema-instance" xmlns:ns2="http://www.garmin.com/xmlschemas/GpxExtensions/v3" creator="Garmin Connect" version="1.1" xsi:schemaLocation="http://www.topografix.com/GPX/1/1 http://www.topografix.com/GPX/11.xsd">
  <extensions>
<distance>5052.79</distance>
<average_hr>114.0</average_hr>
<average_speed>2.494999885559082</average_speed>
<start_time>2025-06-18T11:54:46+00:00</start_time>
<end_time>2025-06-18T12:28:31.267000+00:00</end_time>
<moving_time>2011.11</moving_time>
<elapsed_time>2025.267</elapsed_time>
</extensions>
<metadata>
    <link href="connect.garmin.com">
      <text>Garmin Connect</text>
    </link>
    <time>2025-06-18T11:54:46.000Z</time>
  </metadata>
  <trk>
    <name>轻刻健身跑步机21</name>
    <desc>旁边有个小妹子，以3.8的时速在跑步机上看手机，这也是所谓的锻炼？！</desc>
    <type>treadmill_running</type>
    <trkseg/>
  </trk>
</gpx>
