<gpx xmlns:ns3="http://www.garmin.com/xmlschemas/TrackPointExtension/v1" xmlns="http://www.topografix.com/GPX/1/1" xmlns:xsi="http://www.w3.org/2001/XMLSchema-instance" xmlns:ns2="http://www.garmin.com/xmlschemas/GpxExtensions/v3" creator="Garmin Connect" version="1.1" xsi:schemaLocation="http://www.topografix.com/GPX/1/1 http://www.topografix.com/GPX/11.xsd">
  <extensions>
<distance>5556.78</distance>
<average_hr>117.0</average_hr>
<average_speed>2.4140000343322754</average_speed>
<start_time>2025-06-30T12:18:42+00:00</start_time>
<end_time>2025-06-30T12:57:03.992000+00:00</end_time>
<moving_time>2271.277</moving_time>
<elapsed_time>2322.475</elapsed_time>
</extensions>
<metadata>
    <link href="connect.garmin.com">
      <text>Garmin Connect</text>
    </link>
    <time>2025-06-30T12:18:42.000Z</time>
  </metadata>
  <trk>
    <name>轻刻健身跑步机29</name>
    <desc/>
    <type>treadmill_running</type>
    <trkseg/>
  </trk>
</gpx>
