<gpx xmlns:ns3="http://www.garmin.com/xmlschemas/TrackPointExtension/v1" xmlns="http://www.topografix.com/GPX/1/1" xmlns:xsi="http://www.w3.org/2001/XMLSchema-instance" xmlns:ns2="http://www.garmin.com/xmlschemas/GpxExtensions/v3" creator="Garmin Connect" version="1.1" xsi:schemaLocation="http://www.topografix.com/GPX/1/1 http://www.topografix.com/GPX/11.xsd">
  <extensions>
<distance>10003.99</distance>
<average_hr>117.0</average_hr>
<average_speed>2.4779999256134033</average_speed>
<start_time>2025-07-01T10:58:35+00:00</start_time>
<end_time>2025-07-01T12:05:51.768000+00:00</end_time>
<moving_time>4025.081</moving_time>
<elapsed_time>4036.768</elapsed_time>
</extensions>
<metadata>
    <link href="connect.garmin.com">
      <text>Garmin Connect</text>
    </link>
    <time>2025-07-01T10:58:35.000Z</time>
  </metadata>
  <trk>
    <name>轻刻健身跑步机30</name>
    <desc>为了完成2025K的年度目标，开始增加跑量。旁边两个健身小仙女以时速3.5在跑步机上玩手机！</desc>
    <type>treadmill_running</type>
    <trkseg/>
  </trk>
</gpx>
