<gpx xmlns:ns3="http://www.garmin.com/xmlschemas/TrackPointExtension/v1" xmlns="http://www.topografix.com/GPX/1/1" xmlns:xsi="http://www.w3.org/2001/XMLSchema-instance" xmlns:ns2="http://www.garmin.com/xmlschemas/GpxExtensions/v3" creator="Garmin Connect" version="1.1" xsi:schemaLocation="http://www.topografix.com/GPX/1/1 http://www.topografix.com/GPX/11.xsd">
  <extensions>
<distance>5557.71</distance>
<average_hr>125.0</average_hr>
<average_speed>2.4159998893737793</average_speed>
<start_time>2025-07-03T09:06:46+00:00</start_time>
<end_time>2025-07-03T09:45:06.826000+00:00</end_time>
<moving_time>2261.852</moving_time>
<elapsed_time>2300.826</elapsed_time>
</extensions>
<metadata>
    <link href="connect.garmin.com">
      <text>Garmin Connect</text>
    </link>
    <time>2025-07-03T09:06:46.000Z</time>
  </metadata>
  <trk>
    <name>喜玛拉雅酒店跑步机</name>
    <desc>早上太热没跑到10K，晚上酒店跑步机凑数</desc>
    <type>treadmill_running</type>
    <trkseg/>
  </trk>
</gpx>
