<gpx xmlns:ns3="http://www.garmin.com/xmlschemas/TrackPointExtension/v1" xmlns="http://www.topografix.com/GPX/1/1" xmlns:xsi="http://www.w3.org/2001/XMLSchema-instance" xmlns:ns2="http://www.garmin.com/xmlschemas/GpxExtensions/v3" creator="Garmin Connect" version="1.1" xsi:schemaLocation="http://www.topografix.com/GPX/1/1 http://www.topografix.com/GPX/11.xsd">
  <extensions>
<distance>6470.6</distance>
<average_hr>122.0</average_hr>
<average_speed>2.421999931335449</average_speed>
<start_time>2025-07-07T12:48:29+00:00</start_time>
<end_time>2025-07-07T13:33:00.748000+00:00</end_time>
<moving_time>2655.03</moving_time>
<elapsed_time>2673.976</elapsed_time>
</extensions>
<metadata>
    <link href="connect.garmin.com">
      <text>Garmin Connect</text>
    </link>
    <time>2025-07-07T12:48:29.000Z</time>
  </metadata>
  <trk>
    <name>轻刻健身跑步机31</name>
    <desc>今天的心情非常吻合正在听的书《叫魂:1768年中国巫术大恐慌》，胡乱折腾害死人啊！</desc>
    <type>treadmill_running</type>
    <trkseg/>
  </trk>
</gpx>
