<gpx xmlns:ns3="http://www.garmin.com/xmlschemas/TrackPointExtension/v1" xmlns="http://www.topografix.com/GPX/1/1" xmlns:xsi="http://www.w3.org/2001/XMLSchema-instance" xmlns:ns2="http://www.garmin.com/xmlschemas/GpxExtensions/v3" creator="Garmin Connect" version="1.1" xsi:schemaLocation="http://www.topografix.com/GPX/1/1 http://www.topografix.com/GPX/11.xsd">
  <extensions>
<distance>10104.13</distance>
<average_hr>118.0</average_hr>
<average_speed>2.4760000705718994</average_speed>
<start_time>2025-07-08T11:16:35+00:00</start_time>
<end_time>2025-07-08T12:24:35.077000+00:00</end_time>
<moving_time>4073.425</moving_time>
<elapsed_time>4080.077</elapsed_time>
</extensions>
<metadata>
    <link href="connect.garmin.com">
      <text>Garmin Connect</text>
    </link>
    <time>2025-07-08T11:16:35.000Z</time>
  </metadata>
  <trk>
    <name>轻刻健身跑步机32</name>
    <desc>和林总喝完午茶后感慨颇多，每个人都不容易，该努力坚持的还得坚持！</desc>
    <type>treadmill_running</type>
    <trkseg/>
  </trk>
</gpx>
