<gpx xmlns:ns3="http://www.garmin.com/xmlschemas/TrackPointExtension/v1" xmlns="http://www.topografix.com/GPX/1/1" xmlns:xsi="http://www.w3.org/2001/XMLSchema-instance" xmlns:ns2="http://www.garmin.com/xmlschemas/GpxExtensions/v3" creator="Garmin Connect" version="1.1" xsi:schemaLocation="http://www.topografix.com/GPX/1/1 http://www.topografix.com/GPX/11.xsd">
  <extensions>
<distance>5056.29</distance>
<average_hr>116.0</average_hr>
<average_speed>2.4130001068115234</average_speed>
<start_time>2025-07-09T12:29:06+00:00</start_time>
<end_time>2025-07-09T13:04:01.326000+00:00</end_time>
<moving_time>2065.378</moving_time>
<elapsed_time>2095.326</elapsed_time>
</extensions>
<metadata>
    <link href="connect.garmin.com">
      <text>Garmin Connect</text>
    </link>
    <time>2025-07-09T12:29:06.000Z</time>
  </metadata>
  <trk>
    <name>轻刻健身跑步机33</name>
    <desc/>
    <type>treadmill_running</type>
    <trkseg/>
  </trk>
</gpx>
