<gpx xmlns:ns3="http://www.garmin.com/xmlschemas/TrackPointExtension/v1" xmlns="http://www.topografix.com/GPX/1/1" xmlns:xsi="http://www.w3.org/2001/XMLSchema-instance" xmlns:ns2="http://www.garmin.com/xmlschemas/GpxExtensions/v3" creator="Garmin Connect" version="1.1" xsi:schemaLocation="http://www.topografix.com/GPX/1/1 http://www.topografix.com/GPX/11.xsd">
  <extensions>
<distance>5156.93</distance>
<average_hr>111.0</average_hr>
<average_speed>2.4040000438690186</average_speed>
<start_time>2025-07-12T01:02:18+00:00</start_time>
<end_time>2025-07-12T01:38:03.577000+00:00</end_time>
<moving_time>2100.956</moving_time>
<elapsed_time>2153.499</elapsed_time>
</extensions>
<metadata>
    <link href="connect.garmin.com">
      <text>Garmin Connect</text>
    </link>
    <time>2025-07-12T01:02:18.000Z</time>
  </metadata>
  <trk>
    <name>轻刻健身跑步机36</name>
    <desc>今天晚上估计有酒局，提前完成作业，已经坚持连续跑5K+第19天。</desc>
    <type>treadmill_running</type>
    <trkseg/>
  </trk>
</gpx>
