<gpx xmlns:ns3="http://www.garmin.com/xmlschemas/TrackPointExtension/v1" xmlns="http://www.topografix.com/GPX/1/1" xmlns:xsi="http://www.w3.org/2001/XMLSchema-instance" xmlns:ns2="http://www.garmin.com/xmlschemas/GpxExtensions/v3" creator="Garmin Connect" version="1.1" xsi:schemaLocation="http://www.topografix.com/GPX/1/1 http://www.topografix.com/GPX/11.xsd">
  <extensions>
<distance>10122.72</distance>
<average_hr>117.0</average_hr>
<average_speed>2.484999895095825</average_speed>
<start_time>2025-07-17T11:58:50+00:00</start_time>
<end_time>2025-07-17T13:06:42.919000+00:00</end_time>
<moving_time>4064.517</moving_time>
<elapsed_time>4074.482</elapsed_time>
</extensions>
<metadata>
    <link href="connect.garmin.com">
      <text>Garmin Connect</text>
    </link>
    <time>2025-07-17T11:58:50.000Z</time>
  </metadata>
  <trk>
    <name>轻刻健身跑步机40</name>
    <desc>坚持的还不错，7月跑量超200，坚持拿到30天连续跑步徽章，还差6天。</desc>
    <type>treadmill_running</type>
    <trkseg/>
  </trk>
</gpx>
