<gpx xmlns:ns3="http://www.garmin.com/xmlschemas/TrackPointExtension/v1" xmlns="http://www.topografix.com/GPX/1/1" xmlns:xsi="http://www.w3.org/2001/XMLSchema-instance" xmlns:ns2="http://www.garmin.com/xmlschemas/GpxExtensions/v3" creator="Garmin Connect" version="1.1" xsi:schemaLocation="http://www.topografix.com/GPX/1/1 http://www.topografix.com/GPX/11.xsd">
  <extensions>
<distance>10022.12</distance>
<average_hr>111.0</average_hr>
<average_speed>2.4570000171661377</average_speed>
<start_time>2025-07-18T10:44:05+00:00</start_time>
<end_time>2025-07-18T11:52:03.737000+00:00</end_time>
<moving_time>4072.816</moving_time>
<elapsed_time>4078.737</elapsed_time>
</extensions>
<metadata>
    <link href="connect.garmin.com">
      <text>Garmin Connect</text>
    </link>
    <time>2025-07-18T10:44:05.000Z</time>
  </metadata>
  <trk>
    <name>轻刻健身跑步机41</name>
    <desc/>
    <type>treadmill_running</type>
    <trkseg/>
  </trk>
</gpx>
