<gpx xmlns:ns3="http://www.garmin.com/xmlschemas/TrackPointExtension/v1" xmlns="http://www.topografix.com/GPX/1/1" xmlns:xsi="http://www.w3.org/2001/XMLSchema-instance" xmlns:ns2="http://www.garmin.com/xmlschemas/GpxExtensions/v3" creator="Garmin Connect" version="1.1" xsi:schemaLocation="http://www.topografix.com/GPX/1/1 http://www.topografix.com/GPX/11.xsd">
  <extensions>
<distance>10106.67</distance>
<average_hr>115.0</average_hr>
<average_speed>2.427999973297119</average_speed>
<start_time>2025-07-21T12:11:29+00:00</start_time>
<end_time>2025-07-21T13:20:52.202000+00:00</end_time>
<moving_time>4158.101</moving_time>
<elapsed_time>4163.202</elapsed_time>
</extensions>
<metadata>
    <link href="connect.garmin.com">
      <text>Garmin Connect</text>
    </link>
    <time>2025-07-21T12:11:29.000Z</time>
  </metadata>
  <trk>
    <name>轻刻健身跑步机44</name>
    <desc/>
    <type>treadmill_running</type>
    <trkseg/>
  </trk>
</gpx>
