<gpx xmlns:ns3="http://www.garmin.com/xmlschemas/TrackPointExtension/v1" xmlns="http://www.topografix.com/GPX/1/1" xmlns:xsi="http://www.w3.org/2001/XMLSchema-instance" xmlns:ns2="http://www.garmin.com/xmlschemas/GpxExtensions/v3" creator="Garmin Connect" version="1.1" xsi:schemaLocation="http://www.topografix.com/GPX/1/1 http://www.topografix.com/GPX/11.xsd">
  <extensions>
<distance>10200.2</distance>
<average_hr>112.0</average_hr>
<average_speed>2.434000015258789</average_speed>
<start_time>2025-07-22T12:10:38+00:00</start_time>
<end_time>2025-07-22T13:20:28.593000+00:00</end_time>
<moving_time>4144.634</moving_time>
<elapsed_time>4208.057</elapsed_time>
</extensions>
<metadata>
    <link href="connect.garmin.com">
      <text>Garmin Connect</text>
    </link>
    <time>2025-07-22T12:10:38.000Z</time>
  </metadata>
  <trk>
    <name>轻刻健身跑步机45</name>
    <desc/>
    <type>treadmill_running</type>
    <trkseg/>
  </trk>
</gpx>
