<gpx xmlns:ns3="http://www.garmin.com/xmlschemas/TrackPointExtension/v1" xmlns="http://www.topografix.com/GPX/1/1" xmlns:xsi="http://www.w3.org/2001/XMLSchema-instance" xmlns:ns2="http://www.garmin.com/xmlschemas/GpxExtensions/v3" creator="Garmin Connect" version="1.1" xsi:schemaLocation="http://www.topografix.com/GPX/1/1 http://www.topografix.com/GPX/11.xsd">
  <extensions>
<distance>1009.54</distance>
<average_hr>114.0</average_hr>
<average_speed>2.2960000038146973</average_speed>
<start_time>2025-07-26T07:41:56+00:00</start_time>
<end_time>2025-07-26T07:49:15.728000+00:00</end_time>
<moving_time>423.0</moving_time>
<elapsed_time>439.728</elapsed_time>
</extensions>
<metadata>
    <link href="connect.garmin.com">
      <text>Garmin Connect</text>
    </link>
    <time>2025-07-26T07:41:56.000Z</time>
  </metadata>
  <trk>
    <name>家用跑步机试跑01</name>
    <desc>198办的健身房季卡快到期，收了台二手家用跑步机，和健身房得没法比，聊胜于无，如果没有合适的健身房季卡就用这个凑跑量，跑步机是从一个住在8楼无电梯的济南人哪里买的，两个人费劲抬下楼，花费168+20块板车运回来试用下。</desc>
    <type>treadmill_running</type>
    <trkseg/>
  </trk>
</gpx>
