<gpx xmlns:ns3="http://www.garmin.com/xmlschemas/TrackPointExtension/v1" xmlns="http://www.topografix.com/GPX/1/1" xmlns:xsi="http://www.w3.org/2001/XMLSchema-instance" xmlns:ns2="http://www.garmin.com/xmlschemas/GpxExtensions/v3" creator="Garmin Connect" version="1.1" xsi:schemaLocation="http://www.topografix.com/GPX/1/1 http://www.topografix.com/GPX/11.xsd">
  <extensions>
<distance>2011.02</distance>
<average_hr>100.0</average_hr>
<average_speed>2.315000057220459</average_speed>
<start_time>2025-07-27T01:42:56+00:00</start_time>
<end_time>2025-07-27T01:57:24.540000+00:00</end_time>
<moving_time>852.532</moving_time>
<elapsed_time>1109.386</elapsed_time>
</extensions>
<metadata>
    <link href="connect.garmin.com">
      <text>Garmin Connect</text>
    </link>
    <time>2025-07-27T01:42:56.000Z</time>
  </metadata>
  <trk>
    <name>家用跑步机02</name>
    <desc>有异响，买了润滑油，等上油看看效果，不过这种窄小的家用款和健身房的没法比，健身房的太大了，感觉进不了电梯和家门。第二次用，楼下已经找物业上门投诉了。减震是个大问题，看看转移到阳台是否可缓解。</desc>
    <type>treadmill_running</type>
    <trkseg/>
  </trk>
</gpx>
