<gpx xmlns:ns3="http://www.garmin.com/xmlschemas/TrackPointExtension/v1" xmlns="http://www.topografix.com/GPX/1/1" xmlns:xsi="http://www.w3.org/2001/XMLSchema-instance" xmlns:ns2="http://www.garmin.com/xmlschemas/GpxExtensions/v3" creator="Garmin Connect" version="1.1" xsi:schemaLocation="http://www.topografix.com/GPX/1/1 http://www.topografix.com/GPX/11.xsd">
  <extensions>
<distance>5009.66</distance>
<average_hr>119.0</average_hr>
<average_speed>2.384999990463257</average_speed>
<start_time>2025-07-29T12:48:08+00:00</start_time>
<end_time>2025-07-29T13:23:08.798000+00:00</end_time>
<moving_time>2099.43</moving_time>
<elapsed_time>2100.798</elapsed_time>
</extensions>
<metadata>
    <link href="connect.garmin.com">
      <text>Garmin Connect</text>
    </link>
    <time>2025-07-29T12:48:08.000Z</time>
  </metadata>
  <trk>
    <name>轻刻健身跑步机52</name>
    <desc>测试下runpage的数据合并bug修复的如何？所以把10K分两次记录。</desc>
    <type>treadmill_running</type>
    <trkseg/>
  </trk>
</gpx>
