<gpx xmlns:ns3="http://www.garmin.com/xmlschemas/TrackPointExtension/v1" xmlns="http://www.topografix.com/GPX/1/1" xmlns:xsi="http://www.w3.org/2001/XMLSchema-instance" xmlns:ns2="http://www.garmin.com/xmlschemas/GpxExtensions/v3" creator="Garmin Connect" version="1.1" xsi:schemaLocation="http://www.topografix.com/GPX/1/1 http://www.topografix.com/GPX/11.xsd">
  <extensions>
<distance>5257.8</distance>
<average_hr>113.0</average_hr>
<average_speed>2.436000108718872</average_speed>
<start_time>2025-07-29T12:11:56+00:00</start_time>
<end_time>2025-07-29T12:47:54.490000+00:00</end_time>
<moving_time>2147.655</moving_time>
<elapsed_time>2158.49</elapsed_time>
</extensions>
<metadata>
    <link href="connect.garmin.com">
      <text>Garmin Connect</text>
    </link>
    <time>2025-07-29T12:11:56.000Z</time>
  </metadata>
  <trk>
    <name>轻刻健身跑步机51</name>
    <desc/>
    <type>treadmill_running</type>
    <trkseg/>
  </trk>
</gpx>
