<gpx xmlns:ns3="http://www.garmin.com/xmlschemas/TrackPointExtension/v1" xmlns="http://www.topografix.com/GPX/1/1" xmlns:xsi="http://www.w3.org/2001/XMLSchema-instance" xmlns:ns2="http://www.garmin.com/xmlschemas/GpxExtensions/v3" creator="Garmin Connect" version="1.1" xsi:schemaLocation="http://www.topografix.com/GPX/1/1 http://www.topografix.com/GPX/11.xsd">
  <extensions>
<distance>10107.16</distance>
<average_hr>114.0</average_hr>
<average_speed>2.5109999179840083</average_speed>
<start_time>2025-08-04T12:07:37+00:00</start_time>
<end_time>2025-08-04T13:14:41.485000+00:00</end_time>
<moving_time>4016.164</moving_time>
<elapsed_time>4024.485</elapsed_time>
</extensions>
<metadata>
    <link href="connect.garmin.com">
      <text>Garmin Connect</text>
    </link>
    <time>2025-08-04T12:07:37.000Z</time>
  </metadata>
  <trk>
    <name>轻刻健身跑步机56</name>
    <desc>昨天还正常开，今天居然跑路了！！！另外一家1298的年卡，我是买还是不买呢？如果不去健身房。这附近真没可跑步的地方。</desc>
    <type>treadmill_running</type>
    <trkseg/>
  </trk>
</gpx>
