<gpx xmlns:ns3="http://www.garmin.com/xmlschemas/TrackPointExtension/v1" xmlns="http://www.topografix.com/GPX/1/1" xmlns:xsi="http://www.w3.org/2001/XMLSchema-instance" xmlns:ns2="http://www.garmin.com/xmlschemas/GpxExtensions/v3" creator="Garmin Connect" version="1.1" xsi:schemaLocation="http://www.topografix.com/GPX/1/1 http://www.topografix.com/GPX/11.xsd">
  <extensions>
<distance>10207.72</distance>
<average_hr>125.0</average_hr>
<average_speed>2.5989999771118164</average_speed>
<start_time>2025-08-06T11:59:02+00:00</start_time>
<end_time>2025-08-06T13:04:29.261000+00:00</end_time>
<moving_time>3901.142</moving_time>
<elapsed_time>4154.335</elapsed_time>
</extensions>
<metadata>
    <link href="connect.garmin.com">
      <text>Garmin Connect</text>
    </link>
    <time>2025-08-06T11:59:02.000Z</time>
  </metadata>
  <trk>
    <name>微健身跑步机01</name>
    <desc>1298年卡送了90天，共456天，看看我能跑多少次，看看是否会跑路。</desc>
    <type>treadmill_running</type>
    <trkseg/>
  </trk>
</gpx>
