<gpx xmlns:ns3="http://www.garmin.com/xmlschemas/TrackPointExtension/v1" xmlns="http://www.topografix.com/GPX/1/1" xmlns:xsi="http://www.w3.org/2001/XMLSchema-instance" xmlns:ns2="http://www.garmin.com/xmlschemas/GpxExtensions/v3" creator="Garmin Connect" version="1.1" xsi:schemaLocation="http://www.topografix.com/GPX/1/1 http://www.topografix.com/GPX/11.xsd">
  <extensions>
<distance>5055.09</distance>
<average_hr>105.0</average_hr>
<average_speed>2.683000087738037</average_speed>
<start_time>2025-08-06T23:43:58+00:00</start_time>
<end_time>2025-08-07T00:15:21.816000+00:00</end_time>
<moving_time>1879.829</moving_time>
<elapsed_time>1883.816</elapsed_time>
</extensions>
<metadata>
    <link href="connect.garmin.com">
      <text>Garmin Connect</text>
    </link>
    <time>2025-08-06T23:43:58.000Z</time>
  </metadata>
  <trk>
    <name>微健身跑步机02</name>
    <desc>新健身房早上6:30开门，以前晚上跑10K早上起不来，现在调整为早上多跑晚上减量，最近在听《人类大历史》的续作《人类大命运》感谢Z-lib </desc>
    <type>treadmill_running</type>
    <trkseg/>
  </trk>
</gpx>
