<gpx xmlns:ns3="http://www.garmin.com/xmlschemas/TrackPointExtension/v1" xmlns="http://www.topografix.com/GPX/1/1" xmlns:xsi="http://www.w3.org/2001/XMLSchema-instance" xmlns:ns2="http://www.garmin.com/xmlschemas/GpxExtensions/v3" creator="Garmin Connect" version="1.1" xsi:schemaLocation="http://www.topografix.com/GPX/1/1 http://www.topografix.com/GPX/11.xsd">
  <extensions>
<distance>10110.17</distance>
<average_hr>112.0</average_hr>
<average_speed>2.618000030517578</average_speed>
<start_time>2025-08-08T11:50:41+00:00</start_time>
<end_time>2025-08-08T12:55:03.508000+00:00</end_time>
<moving_time>3838.576</moving_time>
<elapsed_time>3862.508</elapsed_time>
</extensions>
<metadata>
    <link href="connect.garmin.com">
      <text>Garmin Connect</text>
    </link>
    <time>2025-08-08T11:50:41.000Z</time>
  </metadata>
  <trk>
    <name>微健身跑步机04</name>
    <desc>新杯弓蛇影，昨减量跑完5K后闲来无事练了会器械。夜里下腹部疼痛，迷糊中还用DeepSeek搜了下是什么病，担心肾结石，阑尾炎之类，晨练闹钟响起心想还是善待自己休跑。清醒后突然想起腹部疼应该是拉了几十下类似划船机的器械所致，想到这里也不焦虑腹部也不疼了！</desc>
    <type>treadmill_running</type>
    <trkseg/>
  </trk>
</gpx>
