<gpx xmlns:ns3="http://www.garmin.com/xmlschemas/TrackPointExtension/v1" xmlns="http://www.topografix.com/GPX/1/1" xmlns:xsi="http://www.w3.org/2001/XMLSchema-instance" xmlns:ns2="http://www.garmin.com/xmlschemas/GpxExtensions/v3" creator="Garmin Connect" version="1.1" xsi:schemaLocation="http://www.topografix.com/GPX/1/1 http://www.topografix.com/GPX/11.xsd">
  <extensions>
<distance>5611.6</distance>
<average_hr>115.0</average_hr>
<average_speed>2.440999984741211</average_speed>
<start_time>2025-08-11T12:19:02+00:00</start_time>
<end_time>2025-08-11T12:57:21.175000+00:00</end_time>
<moving_time>2134.6</moving_time>
<elapsed_time>2306.735</elapsed_time>
</extensions>
<metadata>
    <link href="connect.garmin.com">
      <text>Garmin Connect</text>
    </link>
    <time>2025-08-11T12:19:02.000Z</time>
  </metadata>
  <trk>
    <name>微健身跑步机06</name>
    <desc>今天的社交媒体可说正面对著严峻的挑战，讯息真假难分，充满偏见的谣言不断散播，使人信以为真。其次，我们创造了同温层，往往只和观点相同的人沟通，不见对异己的包容；线上的讨论，亦会很快激起人们的愤怒，仇恨言论更容易让人失去理性。
此外，由于社交媒体快速、简短的特性，我们很快就跳到结论。在此情况下，很难表达出复杂、深刻的观点。那么，社交媒体只会使人变得偏狭、自以为是。</desc>
    <type>treadmill_running</type>
    <trkseg/>
  </trk>
</gpx>
