<gpx xmlns:ns3="http://www.garmin.com/xmlschemas/TrackPointExtension/v1" xmlns="http://www.topografix.com/GPX/1/1" xmlns:xsi="http://www.w3.org/2001/XMLSchema-instance" xmlns:ns2="http://www.garmin.com/xmlschemas/GpxExtensions/v3" creator="Garmin Connect" version="1.1" xsi:schemaLocation="http://www.topografix.com/GPX/1/1 http://www.topografix.com/GPX/11.xsd">
  <extensions>
<distance>5570.33</distance>
<average_hr>106.0</average_hr>
<average_speed>2.5690000057220455</average_speed>
<start_time>2025-08-11T22:49:35+00:00</start_time>
<end_time>2025-08-11T23:25:42.956000+00:00</end_time>
<moving_time>2149.832</moving_time>
<elapsed_time>2251.174</elapsed_time>
</extensions>
<metadata>
    <link href="connect.garmin.com">
      <text>Garmin Connect</text>
    </link>
    <time>2025-08-11T22:49:35.000Z</time>
  </metadata>
  <trk>
    <name>微健身跑步机07</name>
    <desc/>
    <type>treadmill_running</type>
    <trkseg/>
  </trk>
</gpx>
