<gpx xmlns:ns3="http://www.garmin.com/xmlschemas/TrackPointExtension/v1" xmlns="http://www.topografix.com/GPX/1/1" xmlns:xsi="http://www.w3.org/2001/XMLSchema-instance" xmlns:ns2="http://www.garmin.com/xmlschemas/GpxExtensions/v3" creator="Garmin Connect" version="1.1" xsi:schemaLocation="http://www.topografix.com/GPX/1/1 http://www.topografix.com/GPX/11.xsd">
  <extensions>
<distance>10111.25</distance>
<average_hr>113.0</average_hr>
<average_speed>2.559000015258789</average_speed>
<start_time>2025-08-23T11:41:29+00:00</start_time>
<end_time>2025-08-23T12:47:19.849000+00:00</end_time>
<moving_time>3916.918</moving_time>
<elapsed_time>4110.096</elapsed_time>
</extensions>
<metadata>
    <link href="connect.garmin.com">
      <text>Garmin Connect</text>
    </link>
    <time>2025-08-23T11:41:29.000Z</time>
  </metadata>
  <trk>
    <name>微健身跑步机12</name>
    <desc/>
    <type>treadmill_running</type>
    <trkseg/>
  </trk>
</gpx>
