<gpx xmlns:ns3="http://www.garmin.com/xmlschemas/TrackPointExtension/v1" xmlns="http://www.topografix.com/GPX/1/1" xmlns:xsi="http://www.w3.org/2001/XMLSchema-instance" xmlns:ns2="http://www.garmin.com/xmlschemas/GpxExtensions/v3" creator="Garmin Connect" version="1.1" xsi:schemaLocation="http://www.topografix.com/GPX/1/1 http://www.topografix.com/GPX/11.xsd">
  <extensions>
<distance>5558.43</distance>
<average_hr>106.0</average_hr>
<average_speed>2.1740000247955322</average_speed>
<start_time>2025-08-24T12:25:34+00:00</start_time>
<end_time>2025-08-24T13:08:10.513000+00:00</end_time>
<moving_time>2541.176</moving_time>
<elapsed_time>2556.513</elapsed_time>
</extensions>
<metadata>
    <link href="connect.garmin.com">
      <text>Garmin Connect</text>
    </link>
    <time>2025-08-24T12:25:34.000Z</time>
  </metadata>
  <trk>
    <name>微健身跑步机13</name>
    <desc/>
    <type>treadmill_running</type>
    <trkseg/>
  </trk>
</gpx>
