<gpx xmlns:ns3="http://www.garmin.com/xmlschemas/TrackPointExtension/v1" xmlns="http://www.topografix.com/GPX/1/1" xmlns:xsi="http://www.w3.org/2001/XMLSchema-instance" xmlns:ns2="http://www.garmin.com/xmlschemas/GpxExtensions/v3" creator="Garmin Connect" version="1.1" xsi:schemaLocation="http://www.topografix.com/GPX/1/1 http://www.topografix.com/GPX/11.xsd">
  <extensions>
<distance>10128.71</distance>
<average_hr>120.0</average_hr>
<average_speed>2.5360000133514404</average_speed>
<start_time>2025-08-25T12:27:54+00:00</start_time>
<end_time>2025-08-25T13:34:28.256000+00:00</end_time>
<moving_time>3983.174</moving_time>
<elapsed_time>3995.128</elapsed_time>
</extensions>
<metadata>
    <link href="connect.garmin.com">
      <text>Garmin Connect</text>
    </link>
    <time>2025-08-25T12:27:54.000Z</time>
  </metadata>
  <trk>
    <name>微健身跑步机14</name>
    <desc/>
    <type>treadmill_running</type>
    <trkseg/>
  </trk>
</gpx>
