<gpx xmlns:ns3="http://www.garmin.com/xmlschemas/TrackPointExtension/v1" xmlns="http://www.topografix.com/GPX/1/1" xmlns:xsi="http://www.w3.org/2001/XMLSchema-instance" xmlns:ns2="http://www.garmin.com/xmlschemas/GpxExtensions/v3" creator="Garmin Connect" version="1.1" xsi:schemaLocation="http://www.topografix.com/GPX/1/1 http://www.topografix.com/GPX/11.xsd">
  <extensions>
<distance>376.75</distance>
<average_hr></average_hr>
<average_speed>0.0989999994635582</average_speed>
<start_time>2019-01-14T06:21:05+00:00</start_time>
<end_time>2019-01-14T07:24:27.093000+00:00</end_time>
<moving_time>1536.0</moving_time>
<elapsed_time>3802.093</elapsed_time>
</extensions>
<metadata>
    <link href="connect.garmin.com">
      <text>Garmin Connect</text>
    </link>
    <time>2019-01-14T06:21:05.000Z</time>
  </metadata>
  <trk>
    <name>Kota Kinabalu 公开水域游泳</name>
    <type>open_water_swimming</type>
    <trkseg>
      <trkpt lat="6.1147490702569484710693359375" lon="116.10742502845823764801025390625">
        <time>2019-01-14T06:32:27.000Z</time>
        <extensions>
          <ns3:TrackPointExtension>
            <ns3:atemp>31.0</ns3:atemp>
            <ns3:cad>0</ns3:cad>
          </ns3:TrackPointExtension>
        </extensions>
      </trkpt>
      <trkpt lat="6.11468478105962276458740234375" lon="116.10748655162751674652099609375">
        <time>2019-01-14T06:36:56.000Z</time>
        <extensions>
          <ns3:TrackPointExtension>
            <ns3:atemp>31.0</ns3:atemp>
            <ns3:cad>0</ns3:cad>
          </ns3:TrackPointExtension>
        </extensions>
      </trkpt>
      <trkpt lat="6.11484185792505741119384765625" lon="116.10794303007423877716064453125">
        <time>2019-01-14T06:39:17.000Z</time>
        <extensions>
          <ns3:TrackPointExtension>
            <ns3:atemp>31.0</ns3:atemp>
            <ns3:cad>0</ns3:cad>
          </ns3:TrackPointExtension>
        </extensions>
      </trkpt>
      <trkpt lat="6.115036569535732269287109375" lon="116.10823002643883228302001953125">
        <time>2019-01-14T06:41:18.000Z</time>
        <extensions>
          <ns3:TrackPointExtension>
            <ns3:atemp>30.0</ns3:atemp>
            <ns3:cad>0</ns3:cad>
          </ns3:TrackPointExtension>
        </extensions>
      </trkpt>
      <trkpt lat="6.114952079951763153076171875" lon="116.108537726104259490966796875">
        <time>2019-01-14T06:42:37.000Z</time>
        <extensions>
          <ns3:TrackPointExtension>
            <ns3:atemp>29.0</ns3:atemp>
            <ns3:cad>0</ns3:cad>
          </ns3:TrackPointExtension>
        </extensions>
      </trkpt>
      <trkpt lat="6.11519314348697662353515625" lon="116.10884944908320903778076171875">
        <time>2019-01-14T06:44:58.000Z</time>
        <extensions>
          <ns3:TrackPointExtension>
            <ns3:atemp>29.0</ns3:atemp>
            <ns3:cad>0</ns3:cad>
          </ns3:TrackPointExtension>
        </extensions>
      </trkpt>
      <trkpt lat="6.11523614265024662017822265625" lon="116.10895791091024875640869140625">
        <time>2019-01-14T06:46:41.000Z</time>
        <extensions>
          <ns3:TrackPointExtension>
            <ns3:atemp>29.0</ns3:atemp>
            <ns3:cad>0</ns3:cad>
          </ns3:TrackPointExtension>
        </extensions>
      </trkpt>
    </trkseg>
  </trk>
</gpx>
