<gpx xmlns:ns3="http://www.garmin.com/xmlschemas/TrackPointExtension/v1" xmlns="http://www.topografix.com/GPX/1/1" xmlns:xsi="http://www.w3.org/2001/XMLSchema-instance" xmlns:ns2="http://www.garmin.com/xmlschemas/GpxExtensions/v3" creator="Garmin Connect" version="1.1" xsi:schemaLocation="http://www.topografix.com/GPX/1/1 http://www.topografix.com/GPX/11.xsd">
  <extensions>
<distance>5056.12</distance>
<average_hr>110.0</average_hr>
<average_speed>2.447999954223633</average_speed>
<start_time>2025-09-03T23:31:21+00:00</start_time>
<end_time>2025-09-04T00:05:46.439000+00:00</end_time>
<moving_time>2039.956</moving_time>
<elapsed_time>2109.493</elapsed_time>
</extensions>
<metadata>
    <link href="connect.garmin.com">
      <text>Garmin Connect</text>
    </link>
    <time>2025-09-03T23:31:21.000Z</time>
  </metadata>
  <trk>
    <name>微健身跑步机20</name>
    <desc>昨晚遇到一特恶心的事，真得提防得志或不得志的小人！今天早上终于能晨跑了！再标记下最近读的书，还是比较应景的。</desc>
    <type>treadmill_running</type>
    <trkseg/>
  </trk>
</gpx>
