<gpx xmlns:ns3="http://www.garmin.com/xmlschemas/TrackPointExtension/v1" xmlns="http://www.topografix.com/GPX/1/1" xmlns:xsi="http://www.w3.org/2001/XMLSchema-instance" xmlns:ns2="http://www.garmin.com/xmlschemas/GpxExtensions/v3" creator="Garmin Connect" version="1.1" xsi:schemaLocation="http://www.topografix.com/GPX/1/1 http://www.topografix.com/GPX/11.xsd">
  <extensions>
<distance>6119.44</distance>
<average_hr>119.0</average_hr>
<average_speed>2.493000030517578</average_speed>
<start_time>2025-09-04T12:28:38+00:00</start_time>
<end_time>2025-09-04T13:09:32.701000+00:00</end_time>
<moving_time>2441.026</moving_time>
<elapsed_time>2454.701</elapsed_time>
</extensions>
<metadata>
    <link href="connect.garmin.com">
      <text>Garmin Connect</text>
    </link>
    <time>2025-09-04T12:28:38.000Z</time>
  </metadata>
  <trk>
    <name>微健身跑步机21</name>
    <desc/>
    <type>treadmill_running</type>
    <trkseg/>
  </trk>
</gpx>
