<gpx xmlns:ns3="http://www.garmin.com/xmlschemas/TrackPointExtension/v1" xmlns="http://www.topografix.com/GPX/1/1" xmlns:xsi="http://www.w3.org/2001/XMLSchema-instance" xmlns:ns2="http://www.garmin.com/xmlschemas/GpxExtensions/v3" creator="Garmin Connect" version="1.1" xsi:schemaLocation="http://www.topografix.com/GPX/1/1 http://www.topografix.com/GPX/11.xsd">
  <extensions>
<distance>6061.75</distance>
<average_hr>120.0</average_hr>
<average_speed>2.598000049591064</average_speed>
<start_time>2025-09-05T12:42:53+00:00</start_time>
<end_time>2025-09-05T13:21:46.519000+00:00</end_time>
<moving_time>2318.634</moving_time>
<elapsed_time>2333.519</elapsed_time>
</extensions>
<metadata>
    <link href="connect.garmin.com">
      <text>Garmin Connect</text>
    </link>
    <time>2025-09-05T12:42:53.000Z</time>
  </metadata>
  <trk>
    <name>微健身跑步机21</name>
    <desc/>
    <type>treadmill_running</type>
    <trkseg/>
  </trk>
</gpx>
