<gpx xmlns:ns3="http://www.garmin.com/xmlschemas/TrackPointExtension/v1" xmlns="http://www.topografix.com/GPX/1/1" xmlns:xsi="http://www.w3.org/2001/XMLSchema-instance" xmlns:ns2="http://www.garmin.com/xmlschemas/GpxExtensions/v3" creator="Garmin Connect" version="1.1" xsi:schemaLocation="http://www.topografix.com/GPX/1/1 http://www.topografix.com/GPX/11.xsd">
  <extensions>
<distance>10244.04</distance>
<average_hr>126.0</average_hr>
<average_speed>2.4690001010894775</average_speed>
<start_time>2025-09-08T12:29:01+00:00</start_time>
<end_time>2025-09-08T13:38:10.453000+00:00</end_time>
<moving_time>4125.425</moving_time>
<elapsed_time>4149.453</elapsed_time>
</extensions>
<metadata>
    <link href="connect.garmin.com">
      <text>Garmin Connect</text>
    </link>
    <time>2025-09-08T12:29:01.000Z</time>
  </metadata>
  <trk>
    <name>微健身跑步机23</name>
    <desc>夜跑得减量，晨跑得搞起，夜跑跑完后两点多才入睡，跑兴奋了？！</desc>
    <type>treadmill_running</type>
    <trkseg/>
  </trk>
</gpx>
