<gpx xmlns:ns3="http://www.garmin.com/xmlschemas/TrackPointExtension/v1" xmlns="http://www.topografix.com/GPX/1/1" xmlns:xsi="http://www.w3.org/2001/XMLSchema-instance" xmlns:ns2="http://www.garmin.com/xmlschemas/GpxExtensions/v3" creator="Garmin Connect" version="1.1" xsi:schemaLocation="http://www.topografix.com/GPX/1/1 http://www.topografix.com/GPX/11.xsd">
  <extensions>
<distance>6068.65</distance>
<average_hr>111.0</average_hr>
<average_speed>2.631999969482422</average_speed>
<start_time>2025-09-09T23:45:55+00:00</start_time>
<end_time>2025-09-10T00:24:20.795000+00:00</end_time>
<moving_time>2287.327</moving_time>
<elapsed_time>2348.219</elapsed_time>
</extensions>
<metadata>
    <link href="connect.garmin.com">
      <text>Garmin Connect</text>
    </link>
    <time>2025-09-09T23:45:55.000Z</time>
  </metadata>
  <trk>
    <name>微健身跑步机25</name>
    <desc/>
    <type>treadmill_running</type>
    <trkseg/>
  </trk>
</gpx>
