<gpx xmlns:ns3="http://www.garmin.com/xmlschemas/TrackPointExtension/v1" xmlns="http://www.topografix.com/GPX/1/1" xmlns:xsi="http://www.w3.org/2001/XMLSchema-instance" xmlns:ns2="http://www.garmin.com/xmlschemas/GpxExtensions/v3" creator="Garmin Connect" version="1.1" xsi:schemaLocation="http://www.topografix.com/GPX/1/1 http://www.topografix.com/GPX/11.xsd">
  <extensions>
<distance>6009.53</distance>
<average_hr>118.0</average_hr>
<average_speed>2.6029999256134033</average_speed>
<start_time>2025-09-10T12:08:04+00:00</start_time>
<end_time>2025-09-10T12:46:32.777000+00:00</end_time>
<moving_time>2268.134</moving_time>
<elapsed_time>2413.409</elapsed_time>
</extensions>
<metadata>
    <link href="connect.garmin.com">
      <text>Garmin Connect</text>
    </link>
    <time>2025-09-10T12:08:04.000Z</time>
  </metadata>
  <trk>
    <name>微健身跑步机26</name>
    <desc/>
    <type>treadmill_running</type>
    <trkseg/>
  </trk>
</gpx>
