<gpx xmlns:ns3="http://www.garmin.com/xmlschemas/TrackPointExtension/v1" xmlns="http://www.topografix.com/GPX/1/1" xmlns:xsi="http://www.w3.org/2001/XMLSchema-instance" xmlns:ns2="http://www.garmin.com/xmlschemas/GpxExtensions/v3" creator="Garmin Connect" version="1.1" xsi:schemaLocation="http://www.topografix.com/GPX/1/1 http://www.topografix.com/GPX/11.xsd">
  <extensions>
<distance>10654.07</distance>
<average_hr>110.0</average_hr>
<average_speed>2.5190000534057613</average_speed>
<start_time>2025-09-18T10:42:59+00:00</start_time>
<end_time>2025-09-18T11:53:28.047000+00:00</end_time>
<moving_time>4216.701</moving_time>
<elapsed_time>4229.047</elapsed_time>
</extensions>
<metadata>
    <link href="connect.garmin.com">
      <text>Garmin Connect</text>
    </link>
    <time>2025-09-18T10:42:59.000Z</time>
  </metadata>
  <trk>
    <name>微健身跑步机35</name>
    <desc/>
    <type>treadmill_running</type>
    <trkseg/>
  </trk>
</gpx>
