<gpx xmlns:ns3="http://www.garmin.com/xmlschemas/TrackPointExtension/v1" xmlns="http://www.topografix.com/GPX/1/1" xmlns:xsi="http://www.w3.org/2001/XMLSchema-instance" xmlns:ns2="http://www.garmin.com/xmlschemas/GpxExtensions/v3" creator="Garmin Connect" version="1.1" xsi:schemaLocation="http://www.topografix.com/GPX/1/1 http://www.topografix.com/GPX/11.xsd">
  <extensions>
<distance>5047.65</distance>
<average_hr>109.0</average_hr>
<average_speed>2.4079999923706055</average_speed>
<start_time>2025-09-21T11:00:58+00:00</start_time>
<end_time>2025-09-21T11:35:54.300000+00:00</end_time>
<moving_time>2094.493</moving_time>
<elapsed_time>2096.3</elapsed_time>
</extensions>
<metadata>
    <link href="connect.garmin.com">
      <text>Garmin Connect</text>
    </link>
    <time>2025-09-21T11:00:58.000Z</time>
  </metadata>
  <trk>
    <name>微健身跑步机38</name>
    <desc/>
    <type>treadmill_running</type>
    <trkseg/>
  </trk>
</gpx>
