<gpx xmlns:ns3="http://www.garmin.com/xmlschemas/TrackPointExtension/v1" xmlns="http://www.topografix.com/GPX/1/1" xmlns:xsi="http://www.w3.org/2001/XMLSchema-instance" xmlns:ns2="http://www.garmin.com/xmlschemas/GpxExtensions/v3" creator="Garmin Connect" version="1.1" xsi:schemaLocation="http://www.topografix.com/GPX/1/1 http://www.topografix.com/GPX/11.xsd">
  <extensions>
<distance>10503.48</distance>
<average_hr>113.0</average_hr>
<average_speed>2.5239999294281006</average_speed>
<start_time>2025-09-23T12:20:46+00:00</start_time>
<end_time>2025-09-23T13:30:07.702000+00:00</end_time>
<moving_time>4150.902</moving_time>
<elapsed_time>4161.702</elapsed_time>
</extensions>
<metadata>
    <link href="connect.garmin.com">
      <text>Garmin Connect</text>
    </link>
    <time>2025-09-23T12:20:46.000Z</time>
  </metadata>
  <trk>
    <name>微健身跑步机41</name>
    <desc/>
    <type>treadmill_running</type>
    <trkseg/>
  </trk>
</gpx>
