<gpx xmlns:ns3="http://www.garmin.com/xmlschemas/TrackPointExtension/v1" xmlns="http://www.topografix.com/GPX/1/1" xmlns:xsi="http://www.w3.org/2001/XMLSchema-instance" xmlns:ns2="http://www.garmin.com/xmlschemas/GpxExtensions/v3" creator="Garmin Connect" version="1.1" xsi:schemaLocation="http://www.topografix.com/GPX/1/1 http://www.topografix.com/GPX/11.xsd">
  <extensions>
<distance>6302.11</distance>
<average_hr>115.0</average_hr>
<average_speed>2.683000087738037</average_speed>
<start_time>2025-09-26T12:15:14+00:00</start_time>
<end_time>2025-09-26T12:54:22.749000+00:00</end_time>
<moving_time>2339.031</moving_time>
<elapsed_time>2348.749</elapsed_time>
</extensions>
<metadata>
    <link href="connect.garmin.com">
      <text>Garmin Connect</text>
    </link>
    <time>2025-09-26T12:15:14.000Z</time>
  </metadata>
  <trk>
    <name>微健身跑步机45</name>
    <desc/>
    <type>treadmill_running</type>
    <trkseg/>
  </trk>
</gpx>
