<gpx xmlns:ns3="http://www.garmin.com/xmlschemas/TrackPointExtension/v1" xmlns="http://www.topografix.com/GPX/1/1" xmlns:xsi="http://www.w3.org/2001/XMLSchema-instance" xmlns:ns2="http://www.garmin.com/xmlschemas/GpxExtensions/v3" creator="Garmin Connect" version="1.1" xsi:schemaLocation="http://www.topografix.com/GPX/1/1 http://www.topografix.com/GPX/11.xsd">
  <extensions>
<distance>5049.93</distance>
<average_hr>106.0</average_hr>
<average_speed>2.444999933242798</average_speed>
<start_time>2025-09-29T23:51:01+00:00</start_time>
<end_time>2025-09-30T00:25:25.994000+00:00</end_time>
<moving_time>2021.143</moving_time>
<elapsed_time>2103.073</elapsed_time>
</extensions>
<metadata>
    <link href="connect.garmin.com">
      <text>Garmin Connect</text>
    </link>
    <time>2025-09-29T23:51:01.000Z</time>
  </metadata>
  <trk>
    <name>微健身跑步机49</name>
    <desc/>
    <type>treadmill_running</type>
    <trkseg/>
  </trk>
</gpx>
