<gpx xmlns:ns3="http://www.garmin.com/xmlschemas/TrackPointExtension/v1" xmlns="http://www.topografix.com/GPX/1/1" xmlns:xsi="http://www.w3.org/2001/XMLSchema-instance" xmlns:ns2="http://www.garmin.com/xmlschemas/GpxExtensions/v3" creator="Garmin Connect" version="1.1" xsi:schemaLocation="http://www.topografix.com/GPX/1/1 http://www.topografix.com/GPX/11.xsd">
  <extensions>
<distance>6149.93</distance>
<average_hr>109.0</average_hr>
<average_speed>2.5220000743865967</average_speed>
<start_time>2025-09-30T12:02:38+00:00</start_time>
<end_time>2025-09-30T12:43:16.351000+00:00</end_time>
<moving_time>2386.787</moving_time>
<elapsed_time>2440.07</elapsed_time>
</extensions>
<metadata>
    <link href="connect.garmin.com">
      <text>Garmin Connect</text>
    </link>
    <time>2025-09-30T12:02:38.000Z</time>
  </metadata>
  <trk>
    <name>微健身跑步机50</name>
    <desc/>
    <type>treadmill_running</type>
    <trkseg/>
  </trk>
</gpx>
