<gpx xmlns:ns3="http://www.garmin.com/xmlschemas/TrackPointExtension/v1" xmlns="http://www.topografix.com/GPX/1/1" xmlns:xsi="http://www.w3.org/2001/XMLSchema-instance" xmlns:ns2="http://www.garmin.com/xmlschemas/GpxExtensions/v3" creator="Garmin Connect" version="1.1" xsi:schemaLocation="http://www.topografix.com/GPX/1/1 http://www.topografix.com/GPX/11.xsd">
  <extensions>
<distance>6178.98</distance>
<average_hr>120.0</average_hr>
<average_speed>2.440999984741211</average_speed>
<start_time>2025-10-01T01:32:48+00:00</start_time>
<end_time>2025-10-01T02:14:58.930000+00:00</end_time>
<moving_time>2520.467</moving_time>
<elapsed_time>2530.93</elapsed_time>
</extensions>
<metadata>
    <link href="connect.garmin.com">
      <text>Garmin Connect</text>
    </link>
    <time>2025-10-01T01:32:48.000Z</time>
  </metadata>
  <trk>
    <name>微健身跑步机51</name>
    <desc>原计划想跑10.01K纪念下假期，担心赶不上回家的飞机，所以有了偷懒的理由！</desc>
    <type>treadmill_running</type>
    <trkseg/>
  </trk>
</gpx>
