<gpx xmlns:ns3="http://www.garmin.com/xmlschemas/TrackPointExtension/v1" xmlns="http://www.topografix.com/GPX/1/1" xmlns:xsi="http://www.w3.org/2001/XMLSchema-instance" xmlns:ns2="http://www.garmin.com/xmlschemas/GpxExtensions/v3" creator="Garmin Connect" version="1.1" xsi:schemaLocation="http://www.topografix.com/GPX/1/1 http://www.topografix.com/GPX/11.xsd">
  <extensions>
<distance>5050.83</distance>
<average_hr>109.0</average_hr>
<average_speed>2.552999973297119</average_speed>
<start_time>2025-10-14T12:34:16+00:00</start_time>
<end_time>2025-10-14T13:07:14.300000+00:00</end_time>
<moving_time>1968.17</moving_time>
<elapsed_time>1978.3</elapsed_time>
</extensions>
<metadata>
    <link href="connect.garmin.com">
      <text>Garmin Connect</text>
    </link>
    <time>2025-10-14T12:34:16.000Z</time>
  </metadata>
  <trk>
    <name>微健身跑步机52</name>
    <desc/>
    <type>treadmill_running</type>
    <trkseg/>
  </trk>
</gpx>
