<gpx xmlns:ns3="http://www.garmin.com/xmlschemas/TrackPointExtension/v1" xmlns="http://www.topografix.com/GPX/1/1" xmlns:xsi="http://www.w3.org/2001/XMLSchema-instance" xmlns:ns2="http://www.garmin.com/xmlschemas/GpxExtensions/v3" creator="Garmin Connect" version="1.1" xsi:schemaLocation="http://www.topografix.com/GPX/1/1 http://www.topografix.com/GPX/11.xsd">
  <extensions>
<distance>5103.07</distance>
<average_hr>104.0</average_hr>
<average_speed>2.437000036239624</average_speed>
<start_time>2025-10-18T12:27:47+00:00</start_time>
<end_time>2025-10-18T13:02:41.191000+00:00</end_time>
<moving_time>2087.845</moving_time>
<elapsed_time>2096.198</elapsed_time>
</extensions>
<metadata>
    <link href="connect.garmin.com">
      <text>Garmin Connect</text>
    </link>
    <time>2025-10-18T12:27:47.000Z</time>
  </metadata>
  <trk>
    <name>微健身跑步机55</name>
    <desc/>
    <type>treadmill_running</type>
    <trkseg/>
  </trk>
</gpx>
