<gpx xmlns:ns3="http://www.garmin.com/xmlschemas/TrackPointExtension/v1" xmlns="http://www.topografix.com/GPX/1/1" xmlns:xsi="http://www.w3.org/2001/XMLSchema-instance" xmlns:ns2="http://www.garmin.com/xmlschemas/GpxExtensions/v3" creator="Garmin Connect" version="1.1" xsi:schemaLocation="http://www.topografix.com/GPX/1/1 http://www.topografix.com/GPX/11.xsd">
  <extensions>
<distance>7891.35</distance>
<average_hr>118.0</average_hr>
<average_speed>2.559999942779541</average_speed>
<start_time>2025-10-23T10:56:51+00:00</start_time>
<end_time>2025-10-23T11:48:13.312000+00:00</end_time>
<moving_time>3076.378</moving_time>
<elapsed_time>3082.312</elapsed_time>
</extensions>
<metadata>
    <link href="connect.garmin.com">
      <text>Garmin Connect</text>
    </link>
    <time>2025-10-23T10:56:51.000Z</time>
  </metadata>
  <trk>
    <name>微健身跑步机59</name>
    <desc/>
    <type>treadmill_running</type>
    <trkseg/>
  </trk>
</gpx>
