<gpx xmlns:ns3="http://www.garmin.com/xmlschemas/TrackPointExtension/v1" xmlns="http://www.topografix.com/GPX/1/1" xmlns:xsi="http://www.w3.org/2001/XMLSchema-instance" xmlns:ns2="http://www.garmin.com/xmlschemas/GpxExtensions/v3" creator="Garmin Connect" version="1.1" xsi:schemaLocation="http://www.topografix.com/GPX/1/1 http://www.topografix.com/GPX/11.xsd">
  <extensions>
<distance>5550.0</distance>
<average_hr>98.0</average_hr>
<average_speed>2.191999912261963</average_speed>
<start_time>2025-11-11T23:37:10+00:00</start_time>
<end_time>2025-11-12T00:19:22.362000+00:00</end_time>
<moving_time>2527.213</moving_time>
<elapsed_time>2532.362</elapsed_time>
</extensions>
<metadata>
    <link href="connect.garmin.com">
      <text>Garmin Connect</text>
    </link>
    <time>2025-11-11T23:37:10.000Z</time>
  </metadata>
  <trk>
    <name>微健身跑步机66</name>
    <desc/>
    <type>treadmill_running</type>
    <trkseg/>
  </trk>
</gpx>
