<gpx xmlns:ns3="http://www.garmin.com/xmlschemas/TrackPointExtension/v1" xmlns="http://www.topografix.com/GPX/1/1" xmlns:xsi="http://www.w3.org/2001/XMLSchema-instance" xmlns:ns2="http://www.garmin.com/xmlschemas/GpxExtensions/v3" creator="Garmin Connect" version="1.1" xsi:schemaLocation="http://www.topografix.com/GPX/1/1 http://www.topografix.com/GPX/11.xsd">
  <extensions>
<distance>6364.5</distance>
<average_hr>115.0</average_hr>
<average_speed>2.6489999294281006</average_speed>
<start_time>2025-11-23T11:36:54+00:00</start_time>
<end_time>2025-11-23T12:16:56.459000+00:00</end_time>
<moving_time>2373.594</moving_time>
<elapsed_time>2453.593</elapsed_time>
</extensions>
<metadata>
    <link href="connect.garmin.com">
      <text>Garmin Connect</text>
    </link>
    <time>2025-11-23T11:36:54.000Z</time>
  </metadata>
  <trk>
    <name>微健身跑步机73</name>
    <desc/>
    <type>treadmill_running</type>
    <trkseg/>
  </trk>
</gpx>
