<gpx xmlns:ns3="http://www.garmin.com/xmlschemas/TrackPointExtension/v1" xmlns="http://www.topografix.com/GPX/1/1" xmlns:xsi="http://www.w3.org/2001/XMLSchema-instance" xmlns:ns2="http://www.garmin.com/xmlschemas/GpxExtensions/v3" creator="Garmin Connect" version="1.1" xsi:schemaLocation="http://www.topografix.com/GPX/1/1 http://www.topografix.com/GPX/11.xsd">
  <extensions>
<distance>5396.58</distance>
<average_hr>104.0</average_hr>
<average_speed>2.5929999351501465</average_speed>
<start_time>2025-11-27T11:12:10+00:00</start_time>
<end_time>2025-11-27T11:46:51.467000+00:00</end_time>
<moving_time>2069.502</moving_time>
<elapsed_time>2083.15</elapsed_time>
</extensions>
<metadata>
    <link href="connect.garmin.com">
      <text>Garmin Connect</text>
    </link>
    <time>2025-11-27T11:12:10.000Z</time>
  </metadata>
  <trk>
    <name>微健身跑步机77</name>
    <desc>最近在用TTS听《五四运动史》，非常不错的一本书，特意跑5.4K纪念下！</desc>
    <type>treadmill_running</type>
    <trkseg/>
  </trk>
</gpx>
