<gpx xmlns:ns3="http://www.garmin.com/xmlschemas/TrackPointExtension/v1" xmlns="http://www.topografix.com/GPX/1/1" xmlns:xsi="http://www.w3.org/2001/XMLSchema-instance" xmlns:ns2="http://www.garmin.com/xmlschemas/GpxExtensions/v3" creator="Garmin Connect" version="1.1" xsi:schemaLocation="http://www.topografix.com/GPX/1/1 http://www.topografix.com/GPX/11.xsd">
  <extensions>
<distance>3599.16</distance>
<average_hr>107.0</average_hr>
<average_speed>2.2039999961853027</average_speed>
<start_time>2025-12-05T12:31:44+00:00</start_time>
<end_time>2025-12-05T12:58:56.742000+00:00</end_time>
<moving_time>1623.519</moving_time>
<elapsed_time>1640.506</elapsed_time>
</extensions>
<metadata>
    <link href="connect.garmin.com">
      <text>Garmin Connect</text>
    </link>
    <time>2025-12-05T12:31:44.000Z</time>
  </metadata>
  <trk>
    <name>微健身跑步机79</name>
    <desc>，昆明马拉松中途右脚踝有疼感，现在依然，不知道是跑的太多还是和碳板鞋有关，悠着点，少跑点，希望珠海和接下来几场马拉松能不出问题！准备不穿碳板跑马测试下！</desc>
    <type>treadmill_running</type>
    <trkseg/>
  </trk>
</gpx>
