<gpx xmlns:ns3="http://www.garmin.com/xmlschemas/TrackPointExtension/v1" xmlns="http://www.topografix.com/GPX/1/1" xmlns:xsi="http://www.w3.org/2001/XMLSchema-instance" xmlns:ns2="http://www.garmin.com/xmlschemas/GpxExtensions/v3" creator="Garmin Connect" version="1.1" xsi:schemaLocation="http://www.topografix.com/GPX/1/1 http://www.topografix.com/GPX/11.xsd">
  <extensions>
<distance>5548.77</distance>
<average_hr>106.0</average_hr>
<average_speed>2.4509999752044678</average_speed>
<start_time>2025-12-12T12:44:26+00:00</start_time>
<end_time>2025-12-12T13:22:10.141000+00:00</end_time>
<moving_time>2202.0</moving_time>
<elapsed_time>2264.141</elapsed_time>
</extensions>
<metadata>
    <link href="connect.garmin.com">
      <text>Garmin Connect</text>
    </link>
    <time>2025-12-12T12:44:26.000Z</time>
  </metadata>
  <trk>
    <name>微健身跑步机83</name>
    <desc/>
    <type>treadmill_running</type>
    <trkseg/>
  </trk>
</gpx>
