<gpx xmlns:ns3="http://www.garmin.com/xmlschemas/TrackPointExtension/v1" xmlns="http://www.topografix.com/GPX/1/1" xmlns:xsi="http://www.w3.org/2001/XMLSchema-instance" xmlns:ns2="http://www.garmin.com/xmlschemas/GpxExtensions/v3" creator="Garmin Connect" version="1.1" xsi:schemaLocation="http://www.topografix.com/GPX/1/1 http://www.topografix.com/GPX/11.xsd">
  <extensions>
<distance>5450.74</distance>
<average_hr>103.0</average_hr>
<average_speed>2.4579999446868896</average_speed>
<start_time>2025-12-23T12:24:04+00:00</start_time>
<end_time>2025-12-23T13:01:01.239000+00:00</end_time>
<moving_time>2197.093</moving_time>
<elapsed_time>2217.239</elapsed_time>
</extensions>
<metadata>
    <link href="connect.garmin.com">
      <text>Garmin Connect</text>
    </link>
    <time>2025-12-23T12:24:04.000Z</time>
  </metadata>
  <trk>
    <name>微健身跑步机88</name>
    <desc/>
    <type>treadmill_running</type>
    <trkseg/>
  </trk>
</gpx>
