<gpx xmlns:ns3="http://www.garmin.com/xmlschemas/TrackPointExtension/v1" xmlns="http://www.topografix.com/GPX/1/1" xmlns:xsi="http://www.w3.org/2001/XMLSchema-instance" xmlns:ns2="http://www.garmin.com/xmlschemas/GpxExtensions/v3" creator="Garmin Connect" version="1.1" xsi:schemaLocation="http://www.topografix.com/GPX/1/1 http://www.topografix.com/GPX/11.xsd">
  <extensions>
<distance>6661.78</distance>
<average_hr>122.0</average_hr>
<average_speed>2.2899999618530273</average_speed>
<start_time>2025-12-31T12:48:39+00:00</start_time>
<end_time>2025-12-31T13:37:08.400000+00:00</end_time>
<moving_time>2906.127</moving_time>
<elapsed_time>2909.4</elapsed_time>
</extensions>
<metadata>
    <link href="connect.garmin.com">
      <text>Garmin Connect</text>
    </link>
    <time>2025-12-31T12:48:39.000Z</time>
  </metadata>
  <trk>
    <name>健身房跨年跑92</name>
    <desc/>
    <type>treadmill_running</type>
    <trkseg/>
  </trk>
</gpx>
