<gpx xmlns:ns3="http://www.garmin.com/xmlschemas/TrackPointExtension/v1" xmlns="http://www.topografix.com/GPX/1/1" xmlns:xsi="http://www.w3.org/2001/XMLSchema-instance" xmlns:ns2="http://www.garmin.com/xmlschemas/GpxExtensions/v3" creator="Garmin Connect" version="1.1" xsi:schemaLocation="http://www.topografix.com/GPX/1/1 http://www.topografix.com/GPX/11.xsd">
  <extensions>
<distance>5212.94</distance>
<average_hr>110.0</average_hr>
<average_speed>2.2309999465942383</average_speed>
<start_time>2026-01-04T12:38:56+00:00</start_time>
<end_time>2026-01-04T13:17:52.406000+00:00</end_time>
<moving_time>2332.126</moving_time>
<elapsed_time>2336.406</elapsed_time>
</extensions>
<metadata>
    <link href="connect.garmin.com">
      <text>Garmin Connect</text>
    </link>
    <time>2026-01-04T12:38:56.000Z</time>
  </metadata>
  <trk>
    <name>苗哥生日快乐93</name>
    <desc/>
    <type>treadmill_running</type>
    <trkseg/>
  </trk>
</gpx>
