<gpx xmlns:ns3="http://www.garmin.com/xmlschemas/TrackPointExtension/v1" xmlns="http://www.topografix.com/GPX/1/1" xmlns:xsi="http://www.w3.org/2001/XMLSchema-instance" xmlns:ns2="http://www.garmin.com/xmlschemas/GpxExtensions/v3" creator="Garmin Connect" version="1.1" xsi:schemaLocation="http://www.topografix.com/GPX/1/1 http://www.topografix.com/GPX/11.xsd">
  <extensions>
<distance>3027.31</distance>
<average_hr>105.0</average_hr>
<average_speed>2.4260001182556152</average_speed>
<start_time>2026-01-23T12:56:54+00:00</start_time>
<end_time>2026-01-23T13:17:41.818000+00:00</end_time>
<moving_time>1225.0</moving_time>
<elapsed_time>1247.818</elapsed_time>
</extensions>
<metadata>
    <link href="connect.garmin.com">
      <text>Garmin Connect</text>
    </link>
    <time>2026-01-23T12:56:54.000Z</time>
  </metadata>
  <trk>
    <name>泰安美仑酒店跑步机</name>
    <desc>这是我住过的酒店里最简陋的跑步机了，跑起来的声音就像莎拉波娃在打比赛，不过想想估计没多少人用它，毕竟是合规公司200报销标准的酒店。看了下里面的洗衣房还不错。</desc>
    <type>treadmill_running</type>
    <trkseg/>
  </trk>
</gpx>
