<gpx xmlns:ns3="http://www.garmin.com/xmlschemas/TrackPointExtension/v1" xmlns="http://www.topografix.com/GPX/1/1" xmlns:xsi="http://www.w3.org/2001/XMLSchema-instance" xmlns:ns2="http://www.garmin.com/xmlschemas/GpxExtensions/v3" creator="Garmin Connect" version="1.1" xsi:schemaLocation="http://www.topografix.com/GPX/1/1 http://www.topografix.com/GPX/11.xsd">
  <extensions>
<distance>5255.86</distance>
<average_hr>103.0</average_hr>
<average_speed>2.5550000667572017</average_speed>
<start_time>2026-01-28T12:45:08+00:00</start_time>
<end_time>2026-01-28T13:19:24.746000+00:00</end_time>
<moving_time>2054.953</moving_time>
<elapsed_time>2056.746</elapsed_time>
</extensions>
<metadata>
    <link href="connect.garmin.com">
      <text>Garmin Connect</text>
    </link>
    <time>2026-01-28T12:45:08.000Z</time>
  </metadata>
  <trk>
    <name>微健身跑步机100</name>
    <desc>1298元办的健身房年卡，已经把每次跑步成本降为12.98元，继续看看能否再打对折。</desc>
    <type>treadmill_running</type>
    <trkseg/>
  </trk>
</gpx>
