<gpx xmlns:ns3="http://www.garmin.com/xmlschemas/TrackPointExtension/v1" xmlns="http://www.topografix.com/GPX/1/1" xmlns:xsi="http://www.w3.org/2001/XMLSchema-instance" xmlns:ns2="http://www.garmin.com/xmlschemas/GpxExtensions/v3" creator="Garmin Connect" version="1.1" xsi:schemaLocation="http://www.topografix.com/GPX/1/1 http://www.topografix.com/GPX/11.xsd">
  <extensions>
<distance>8079.88</distance>
<average_hr>102.0</average_hr>
<average_speed>2.5380001068115234</average_speed>
<start_time>2026-01-29T12:39:33+00:00</start_time>
<end_time>2026-01-29T13:32:36.984000+00:00</end_time>
<moving_time>3181.544</moving_time>
<elapsed_time>3183.984</elapsed_time>
</extensions>
<metadata>
    <link href="connect.garmin.com">
      <text>Garmin Connect</text>
    </link>
    <time>2026-01-29T12:39:33.000Z</time>
  </metadata>
  <trk>
    <name>微健身跑步机101</name>
    <desc>健身房办了张年卡（12+3个月），今天去跑步超过了100次，每次成本降至12.98元，还剩下288天，希望还能再跑100次降本增效打对折。今天本来计划跑10K凑够200K月跑量，要去接两个远道而来的UM宝宝，早点结束沐浴更衣别耽误正事。</desc>
    <type>treadmill_running</type>
    <trkseg/>
  </trk>
</gpx>
