<gpx xmlns:ns3="http://www.garmin.com/xmlschemas/TrackPointExtension/v1" xmlns="http://www.topografix.com/GPX/1/1" xmlns:xsi="http://www.w3.org/2001/XMLSchema-instance" xmlns:ns2="http://www.garmin.com/xmlschemas/GpxExtensions/v3" creator="Garmin Connect" version="1.1" xsi:schemaLocation="http://www.topografix.com/GPX/1/1 http://www.topografix.com/GPX/11.xsd">
  <extensions>
<distance>10104.54</distance>
<average_hr>117.0</average_hr>
<average_speed>2.1710000038146973</average_speed>
<start_time>2026-03-03T10:18:30+00:00</start_time>
<end_time>2026-03-03T11:36:04.345000+00:00</end_time>
<moving_time>4649.941</moving_time>
<elapsed_time>4654.345</elapsed_time>
</extensions>
<metadata>
    <link href="connect.garmin.com">
      <text>Garmin Connect</text>
    </link>
    <time>2026-03-03T10:18:30.000Z</time>
  </metadata>
  <trk>
    <name>孤独元宵节跑步机102</name>
    <desc/>
    <type>treadmill_running</type>
    <trkseg/>
  </trk>
</gpx>
