<gpx xmlns:ns3="http://www.garmin.com/xmlschemas/TrackPointExtension/v1" xmlns="http://www.topografix.com/GPX/1/1" xmlns:xsi="http://www.w3.org/2001/XMLSchema-instance" xmlns:ns2="http://www.garmin.com/xmlschemas/GpxExtensions/v3" creator="Garmin Connect" version="1.1" xsi:schemaLocation="http://www.topografix.com/GPX/1/1 http://www.topografix.com/GPX/11.xsd">
  <extensions>
<distance>5053.55</distance>
<average_hr>108.0</average_hr>
<average_speed>2.186000108718872</average_speed>
<start_time>2026-03-04T11:49:37+00:00</start_time>
<end_time>2026-03-04T12:28:08.509000+00:00</end_time>
<moving_time>2308.229</moving_time>
<elapsed_time>2311.509</elapsed_time>
</extensions>
<metadata>
    <link href="connect.garmin.com">
      <text>Garmin Connect</text>
    </link>
    <time>2026-03-04T11:49:37.000Z</time>
  </metadata>
  <trk>
    <name>凄凉雨夜跑步机103</name>
    <desc>翠逸家园租住的房子，合租同事退租，另觅住处，寻房多处，一周前看过心仪的住处无房，健身房跑5K出来觅食，凄风冷雨与妻儿视频后，孑然一身更倍感凄凉！城中村芸芸众讨生活者忙忙碌碌，最近开始听读繁体版未在大陆出版的《躁动的亡魂》，联想到不太平的外部世界，更倍感消沉…</desc>
    <type>treadmill_running</type>
    <trkseg/>
  </trk>
</gpx>
