<gpx xmlns:ns3="http://www.garmin.com/xmlschemas/TrackPointExtension/v1" xmlns="http://www.topografix.com/GPX/1/1" xmlns:xsi="http://www.w3.org/2001/XMLSchema-instance" xmlns:ns2="http://www.garmin.com/xmlschemas/GpxExtensions/v3" creator="Garmin Connect" version="1.1" xsi:schemaLocation="http://www.topografix.com/GPX/1/1 http://www.topografix.com/GPX/11.xsd">
  <extensions>
<distance>5748.5</distance>
<average_hr>99.0</average_hr>
<average_speed>2.5039999485015865</average_speed>
<start_time>2026-03-06T10:59:08+00:00</start_time>
<end_time>2026-03-06T11:37:23.887000+00:00</end_time>
<moving_time>2275.647</moving_time>
<elapsed_time>2298.247</elapsed_time>
</extensions>
<metadata>
    <link href="connect.garmin.com">
      <text>Garmin Connect</text>
    </link>
    <time>2026-03-06T10:59:08.000Z</time>
  </metadata>
  <trk>
    <name>微健身跑步机104</name>
    <desc/>
    <type>treadmill_running</type>
    <trkseg/>
  </trk>
</gpx>
