<gpx xmlns:ns3="http://www.garmin.com/xmlschemas/TrackPointExtension/v1" xmlns="http://www.topografix.com/GPX/1/1" xmlns:xsi="http://www.w3.org/2001/XMLSchema-instance" xmlns:ns2="http://www.garmin.com/xmlschemas/GpxExtensions/v3" creator="Garmin Connect" version="1.1" xsi:schemaLocation="http://www.topografix.com/GPX/1/1 http://www.topografix.com/GPX/11.xsd">
  <extensions>
<distance>5065.92</distance>
<average_hr>95.0</average_hr>
<average_speed>2.4649999141693115</average_speed>
<start_time>2026-03-10T13:15:36+00:00</start_time>
<end_time>2026-03-10T13:49:50.998000+00:00</end_time>
<moving_time>2053.193</moving_time>
<elapsed_time>2059.209</elapsed_time>
</extensions>
<metadata>
    <link href="connect.garmin.com">
      <text>Garmin Connect</text>
    </link>
    <time>2026-03-10T13:15:36.000Z</time>
  </metadata>
  <trk>
    <name>换房签字跑步机108</name>
    <desc/>
    <type>treadmill_running</type>
    <trkseg/>
  </trk>
</gpx>
