<gpx xmlns:ns3="http://www.garmin.com/xmlschemas/TrackPointExtension/v1" xmlns="http://www.topografix.com/GPX/1/1" xmlns:xsi="http://www.w3.org/2001/XMLSchema-instance" xmlns:ns2="http://www.garmin.com/xmlschemas/GpxExtensions/v3" creator="Garmin Connect" version="1.1" xsi:schemaLocation="http://www.topografix.com/GPX/1/1 http://www.topografix.com/GPX/11.xsd">
  <extensions>
<distance>5099.11</distance>
<average_hr>100.0</average_hr>
<average_speed>2.513000011444092</average_speed>
<start_time>2026-03-19T00:57:14+00:00</start_time>
<end_time>2026-03-19T01:31:02.877000+00:00</end_time>
<moving_time>2016.445</moving_time>
<elapsed_time>2028.877</elapsed_time>
</extensions>
<metadata>
    <link href="connect.garmin.com">
      <text>Garmin Connect</text>
    </link>
    <time>2026-03-19T00:57:14.000Z</time>
  </metadata>
  <trk>
    <name>微健身跑步机113</name>
    <desc/>
    <type>treadmill_running</type>
    <trkseg/>
  </trk>
</gpx>
