<gpx xmlns:ns3="http://www.garmin.com/xmlschemas/TrackPointExtension/v1" xmlns="http://www.topografix.com/GPX/1/1" xmlns:xsi="http://www.w3.org/2001/XMLSchema-instance" xmlns:ns2="http://www.garmin.com/xmlschemas/GpxExtensions/v3" creator="Garmin Connect" version="1.1" xsi:schemaLocation="http://www.topografix.com/GPX/1/1 http://www.topografix.com/GPX/11.xsd">
  <extensions>
<distance>5320.0</distance>
<average_hr>88.0</average_hr>
<average_speed>1.6619999408721924</average_speed>
<start_time>2026-03-23T12:19:39+00:00</start_time>
<end_time>2026-03-23T13:13:00.273000+00:00</end_time>
<moving_time>3154.302</moving_time>
<elapsed_time>3201.273</elapsed_time>
</extensions>
<metadata>
    <link href="connect.garmin.com">
      <text>Garmin Connect</text>
    </link>
    <time>2026-03-23T12:19:39.000Z</time>
  </metadata>
  <trk>
    <name>微健身跑步机114</name>
    <desc>中渡古镇越野赛归来很疲惫，改跑为走！</desc>
    <type>treadmill_running</type>
    <trkseg/>
  </trk>
</gpx>
