<gpx xmlns:ns3="http://www.garmin.com/xmlschemas/TrackPointExtension/v1" xmlns="http://www.topografix.com/GPX/1/1" xmlns:xsi="http://www.w3.org/2001/XMLSchema-instance" xmlns:ns2="http://www.garmin.com/xmlschemas/GpxExtensions/v3" creator="Garmin Connect" version="1.1" xsi:schemaLocation="http://www.topografix.com/GPX/1/1 http://www.topografix.com/GPX/11.xsd">
  <extensions>
<distance>3599.54</distance>
<average_hr>93.0</average_hr>
<average_speed>1.940000057220459</average_speed>
<start_time>2026-03-25T11:46:17+00:00</start_time>
<end_time>2026-03-25T12:17:12.748000+00:00</end_time>
<moving_time>1837.17</moving_time>
<elapsed_time>1855.748</elapsed_time>
</extensions>
<metadata>
    <link href="connect.garmin.com">
      <text>Garmin Connect</text>
    </link>
    <time>2026-03-25T11:46:17.000Z</time>
  </metadata>
  <trk>
    <name>又搬家日跑步机117</name>
    <desc>本来不想跑了，想想还是来少跑点，打个卡，纪念下这折腾的几天，孤身远离家人异地打工者真不容易，不知何时好还乡！</desc>
    <type>treadmill_running</type>
    <trkseg/>
  </trk>
</gpx>
