<gpx xmlns:ns3="http://www.garmin.com/xmlschemas/TrackPointExtension/v1" xmlns="http://www.topografix.com/GPX/1/1" xmlns:xsi="http://www.w3.org/2001/XMLSchema-instance" xmlns:ns2="http://www.garmin.com/xmlschemas/GpxExtensions/v3" creator="Garmin Connect" version="1.1" xsi:schemaLocation="http://www.topografix.com/GPX/1/1 http://www.topografix.com/GPX/11.xsd">
  <extensions>
<distance>3500.0</distance>
<average_hr>93.0</average_hr>
<average_speed>1.9900000095367432</average_speed>
<start_time>2026-03-28T12:33:14+00:00</start_time>
<end_time>2026-03-28T13:02:32.642000+00:00</end_time>
<moving_time>1753.944</moving_time>
<elapsed_time>1758.642</elapsed_time>
</extensions>
<metadata>
    <link href="connect.garmin.com">
      <text>Garmin Connect</text>
    </link>
    <time>2026-03-28T12:33:14.000Z</time>
  </metadata>
  <trk>
    <name>微健身跑步机118</name>
    <desc/>
    <type>treadmill_running</type>
    <trkseg/>
  </trk>
</gpx>
