<gpx xmlns:ns3="http://www.garmin.com/xmlschemas/TrackPointExtension/v1" xmlns="http://www.topografix.com/GPX/1/1" xmlns:xsi="http://www.w3.org/2001/XMLSchema-instance" xmlns:ns2="http://www.garmin.com/xmlschemas/GpxExtensions/v3" creator="Garmin Connect" version="1.1" xsi:schemaLocation="http://www.topografix.com/GPX/1/1 http://www.topografix.com/GPX/11.xsd">
  <extensions>
<distance>3210.0</distance>
<average_hr>109.0</average_hr>
<average_speed>2.315000057220459</average_speed>
<start_time>2026-04-01T12:59:52+00:00</start_time>
<end_time>2026-04-01T13:22:58.712000+00:00</end_time>
<moving_time>1376.888</moving_time>
<elapsed_time>1386.712</elapsed_time>
</extensions>
<metadata>
    <link href="connect.garmin.com">
      <text>Garmin Connect</text>
    </link>
    <time>2026-04-01T12:59:52.000Z</time>
  </metadata>
  <trk>
    <name>微健身跑步机120</name>
    <desc>为测试8848小程序，需要产生两条轨记录，一条室外要求有轨迹，一条室内跑步无轨迹，我为了测试也是够拼的！</desc>
    <type>treadmill_running</type>
    <trkseg/>
  </trk>
</gpx>
