<gpx xmlns:ns3="http://www.garmin.com/xmlschemas/TrackPointExtension/v1" xmlns="http://www.topografix.com/GPX/1/1" xmlns:xsi="http://www.w3.org/2001/XMLSchema-instance" xmlns:ns2="http://www.garmin.com/xmlschemas/GpxExtensions/v3" creator="Garmin Connect" version="1.1" xsi:schemaLocation="http://www.topografix.com/GPX/1/1 http://www.topografix.com/GPX/11.xsd">
  <extensions>
<distance>5251.73</distance>
<average_hr>99.0</average_hr>
<average_speed>2.447999954223633</average_speed>
<start_time>2026-04-02T12:30:18+00:00</start_time>
<end_time>2026-04-02T13:06:03.356000+00:00</end_time>
<moving_time>2138.261</moving_time>
<elapsed_time>2145.356</elapsed_time>
</extensions>
<metadata>
    <link href="connect.garmin.com">
      <text>Garmin Connect</text>
    </link>
    <time>2026-04-02T12:30:18.000Z</time>
  </metadata>
  <trk>
    <name>微健身跑步机121</name>
    <desc/>
    <type>treadmill_running</type>
    <trkseg/>
  </trk>
</gpx>
