<gpx xmlns:ns3="http://www.garmin.com/xmlschemas/TrackPointExtension/v1" xmlns="http://www.topografix.com/GPX/1/1" xmlns:xsi="http://www.w3.org/2001/XMLSchema-instance" xmlns:ns2="http://www.garmin.com/xmlschemas/GpxExtensions/v3" creator="Garmin Connect" version="1.1" xsi:schemaLocation="http://www.topografix.com/GPX/1/1 http://www.topografix.com/GPX/11.xsd">
  <extensions>
<distance>5150.0</distance>
<average_hr>108.0</average_hr>
<average_speed>2.697000026702881</average_speed>
<start_time>2026-04-21T12:56:48+00:00</start_time>
<end_time>2026-04-21T13:28:37.514000+00:00</end_time>
<moving_time>1903.634</moving_time>
<elapsed_time>1910.088</elapsed_time>
</extensions>
<metadata>
    <link href="connect.garmin.com">
      <text>Garmin Connect</text>
    </link>
    <time>2026-04-21T12:56:48.000Z</time>
  </metadata>
  <trk>
    <name>微健身跑步机124</name>
    <desc/>
    <type>treadmill_running</type>
    <trkseg/>
  </trk>
</gpx>
