<gpx xmlns:ns3="http://www.garmin.com/xmlschemas/TrackPointExtension/v1" xmlns="http://www.topografix.com/GPX/1/1" xmlns:xsi="http://www.w3.org/2001/XMLSchema-instance" xmlns:ns2="http://www.garmin.com/xmlschemas/GpxExtensions/v3" creator="Garmin Connect" version="1.1" xsi:schemaLocation="http://www.topografix.com/GPX/1/1 http://www.topografix.com/GPX/11.xsd">
  <extensions>
<distance>7107.46</distance>
<average_hr>115.0</average_hr>
<average_speed>2.914000034332275</average_speed>
<start_time>2026-05-11T12:53:44+00:00</start_time>
<end_time>2026-05-11T13:34:23.106000+00:00</end_time>
<moving_time>2424.926</moving_time>
<elapsed_time>2468.298</elapsed_time>
</extensions>
<metadata>
    <link href="connect.garmin.com">
      <text>Garmin Connect</text>
    </link>
    <time>2026-05-11T12:53:44.000Z</time>
  </metadata>
  <trk>
    <name>微健身跑步机124</name>
    <desc/>
    <type>treadmill_running</type>
    <trkseg/>
  </trk>
</gpx>
