<gpx xmlns:ns3="http://www.garmin.com/xmlschemas/TrackPointExtension/v1" xmlns="http://www.topografix.com/GPX/1/1" xmlns:xsi="http://www.w3.org/2001/XMLSchema-instance" xmlns:ns2="http://www.garmin.com/xmlschemas/GpxExtensions/v3" creator="Garmin Connect" version="1.1" xsi:schemaLocation="http://www.topografix.com/GPX/1/1 http://www.topografix.com/GPX/11.xsd">
  <extensions>
<distance>6060.0</distance>
<average_hr>111.0</average_hr>
<average_speed>2.509000062942505</average_speed>
<start_time>2026-05-11T23:54:08+00:00</start_time>
<end_time>2026-05-12T00:34:23.435000+00:00</end_time>
<moving_time>2393.827</moving_time>
<elapsed_time>2415.435</elapsed_time>
</extensions>
<metadata>
    <link href="connect.garmin.com">
      <text>Garmin Connect</text>
    </link>
    <time>2026-05-11T23:54:08.000Z</time>
  </metadata>
  <trk>
    <name>微健身跑步机125</name>
    <desc>早晨健身房没啥人</desc>
    <type>treadmill_running</type>
    <trkseg/>
  </trk>
</gpx>
