<gpx xmlns:ns3="http://www.garmin.com/xmlschemas/TrackPointExtension/v1" xmlns="http://www.topografix.com/GPX/1/1" xmlns:xsi="http://www.w3.org/2001/XMLSchema-instance" xmlns:ns2="http://www.garmin.com/xmlschemas/GpxExtensions/v3" creator="Garmin Connect" version="1.1" xsi:schemaLocation="http://www.topografix.com/GPX/1/1 http://www.topografix.com/GPX/11.xsd">
  <extensions>
<distance>5120.0</distance>
<average_hr>115.0</average_hr>
<average_speed>2.23799991607666</average_speed>
<start_time>2026-05-12T23:36:30+00:00</start_time>
<end_time>2026-05-13T00:14:37.592000+00:00</end_time>
<moving_time>2276.955</moving_time>
<elapsed_time>2288.284</elapsed_time>
</extensions>
<metadata>
    <link href="connect.garmin.com">
      <text>Garmin Connect</text>
    </link>
    <time>2026-05-12T23:36:30.000Z</time>
  </metadata>
  <trk>
    <name>跑步机</name>
    <desc>纪念下17年前的512</desc>
    <type>treadmill_running</type>
    <trkseg/>
  </trk>
</gpx>
