<gpx xmlns:ns3="http://www.garmin.com/xmlschemas/TrackPointExtension/v1" xmlns="http://www.topografix.com/GPX/1/1" xmlns:xsi="http://www.w3.org/2001/XMLSchema-instance" xmlns:ns2="http://www.garmin.com/xmlschemas/GpxExtensions/v3" creator="Garmin Connect" version="1.1" xsi:schemaLocation="http://www.topografix.com/GPX/1/1 http://www.topografix.com/GPX/11.xsd">
  <extensions>
<distance>5451.73</distance>
<average_hr>112.0</average_hr>
<average_speed>2.180000066757202</average_speed>
<start_time>2026-05-19T23:03:31+00:00</start_time>
<end_time>2026-05-19T23:45:12.259000+00:00</end_time>
<moving_time>2500.07</moving_time>
<elapsed_time>2501.259</elapsed_time>
</extensions>
<metadata>
    <link href="connect.garmin.com">
      <text>Garmin Connect</text>
    </link>
    <time>2026-05-19T23:03:31.000Z</time>
  </metadata>
  <trk>
    <name>微健身跑步机127</name>
    <desc>天降猫狗，被儿子在内诸多早起者激励，已经把夜跑习惯改为晨跑，最近开始试试减掉小肚子</desc>
    <type>treadmill_running</type>
    <trkseg/>
  </trk>
</gpx>
