<gpx xmlns:ns3="http://www.garmin.com/xmlschemas/TrackPointExtension/v1" xmlns="http://www.topografix.com/GPX/1/1" xmlns:xsi="http://www.w3.org/2001/XMLSchema-instance" xmlns:ns2="http://www.garmin.com/xmlschemas/GpxExtensions/v3" creator="Garmin Connect" version="1.1" xsi:schemaLocation="http://www.topografix.com/GPX/1/1 http://www.topografix.com/GPX/11.xsd">
  <extensions>
<distance>5552.17</distance>
<average_hr>111.0</average_hr>
<average_speed>2.2090001106262207</average_speed>
<start_time>2026-05-20T23:03:17+00:00</start_time>
<end_time>2026-05-20T23:45:10.720000+00:00</end_time>
<moving_time>2502.605</moving_time>
<elapsed_time>2513.72</elapsed_time>
</extensions>
<metadata>
    <link href="connect.garmin.com">
      <text>Garmin Connect</text>
    </link>
    <time>2026-05-20T23:03:17.000Z</time>
  </metadata>
  <trk>
    <name>微健身跑步机128</name>
    <desc>继续练腹和胸，今天是第三天，有感，继续坚持</desc>
    <type>treadmill_running</type>
    <trkseg/>
  </trk>
</gpx>
