<gpx xmlns:ns3="http://www.garmin.com/xmlschemas/TrackPointExtension/v1" xmlns="http://www.topografix.com/GPX/1/1" xmlns:xsi="http://www.w3.org/2001/XMLSchema-instance" xmlns:ns2="http://www.garmin.com/xmlschemas/GpxExtensions/v3" creator="Garmin Connect" version="1.1" xsi:schemaLocation="http://www.topografix.com/GPX/1/1 http://www.topografix.com/GPX/11.xsd">
  <extensions>
<distance>5999.62</distance>
<average_hr>102.0</average_hr>
<average_speed>2.1029999256134033</average_speed>
<start_time>2026-05-21T23:04:06+00:00</start_time>
<end_time>2026-05-21T23:51:39.191000+00:00</end_time>
<moving_time>2849.606</moving_time>
<elapsed_time>2853.191</elapsed_time>
</extensions>
<metadata>
    <link href="connect.garmin.com">
      <text>Garmin Connect</text>
    </link>
    <time>2026-05-21T23:04:06.000Z</time>
  </metadata>
  <trk>
    <name>微健身跑步机129</name>
    <desc>昨有疲惫，厌跑厌练，继续坚持，昨天睡了个好觉，有缓解，继续！感谢被诸多人激励！</desc>
    <type>treadmill_running</type>
    <trkseg/>
  </trk>
</gpx>
