<gpx xmlns:ns3="http://www.garmin.com/xmlschemas/TrackPointExtension/v1" xmlns="http://www.topografix.com/GPX/1/1" xmlns:xsi="http://www.w3.org/2001/XMLSchema-instance" xmlns:ns2="http://www.garmin.com/xmlschemas/GpxExtensions/v3" creator="Garmin Connect" version="1.1" xsi:schemaLocation="http://www.topografix.com/GPX/1/1 http://www.topografix.com/GPX/11.xsd">
  <extensions>
<distance>5208.4</distance>
<average_hr>118.0</average_hr>
<average_speed>2.2070000171661377</average_speed>
<start_time>2026-05-25T22:55:48+00:00</start_time>
<end_time>2026-05-25T23:35:08.202000+00:00</end_time>
<moving_time>2348.48</moving_time>
<elapsed_time>2361.355</elapsed_time>
</extensions>
<metadata>
    <link href="connect.garmin.com">
      <text>Garmin Connect</text>
    </link>
    <time>2026-05-25T22:55:48.000Z</time>
  </metadata>
  <trk>
    <name>微健身跑步机133</name>
    <desc>昨和白、熊等一起晚餐饮聊至夜深，到家凌晨一点，拒绝了其中山三宝（烤田鼠、龙虱）只尝试了桂花蝉焗鸡</desc>
    <type>treadmill_running</type>
    <trkseg/>
  </trk>
</gpx>
