<gpx xmlns:ns3="http://www.garmin.com/xmlschemas/TrackPointExtension/v1" xmlns="http://www.topografix.com/GPX/1/1" xmlns:xsi="http://www.w3.org/2001/XMLSchema-instance" xmlns:ns2="http://www.garmin.com/xmlschemas/GpxExtensions/v3" creator="Garmin Connect" version="1.1" xsi:schemaLocation="http://www.topografix.com/GPX/1/1 http://www.topografix.com/GPX/11.xsd">
  <extensions>
<distance>5214.54</distance>
<average_hr>106.0</average_hr>
<average_speed>2.059000015258789</average_speed>
<start_time>2026-05-26T23:19:23+00:00</start_time>
<end_time>2026-05-27T00:01:34.958000+00:00</end_time>
<moving_time>2521.19</moving_time>
<elapsed_time>2531.958</elapsed_time>
</extensions>
<metadata>
    <link href="connect.garmin.com">
      <text>Garmin Connect</text>
    </link>
    <time>2026-05-26T23:19:23.000Z</time>
  </metadata>
  <trk>
    <name>微健身跑步机134</name>
    <desc>有滑雪&amp;潜水朋友南下探班，昨第一顿潮汕牛肉火锅后接着新人加入又生腌+小海鲜，相聊甚欢三瓶啤酒下肚，酒精是运动最大敌人今晨特别厌跑，咬牙继续坚持。</desc>
    <type>treadmill_running</type>
    <trkseg/>
  </trk>
</gpx>
