<gpx xmlns:ns3="http://www.garmin.com/xmlschemas/TrackPointExtension/v1" xmlns="http://www.topografix.com/GPX/1/1" xmlns:xsi="http://www.w3.org/2001/XMLSchema-instance" xmlns:ns2="http://www.garmin.com/xmlschemas/GpxExtensions/v3" creator="Garmin Connect" version="1.1" xsi:schemaLocation="http://www.topografix.com/GPX/1/1 http://www.topografix.com/GPX/11.xsd">
  <extensions>
<distance>5211.74</distance>
<average_hr>112.0</average_hr>
<average_speed>2.2219998836517334</average_speed>
<start_time>2026-05-27T23:15:57+00:00</start_time>
<end_time>2026-05-27T23:55:02.749000+00:00</end_time>
<moving_time>2331.422</moving_time>
<elapsed_time>2354.545</elapsed_time>
</extensions>
<metadata>
    <link href="connect.garmin.com">
      <text>Garmin Connect</text>
    </link>
    <time>2026-05-27T23:15:57.000Z</time>
  </metadata>
  <trk>
    <name>微健身跑步机135</name>
    <desc>最后跑的有点快，下跑步机有点眩晕，天气闷热，减少运动量，赶快到便利店补充电解质饮料！！</desc>
    <type>treadmill_running</type>
    <trkseg/>
  </trk>
</gpx>
