<gpx xmlns:ns3="http://www.garmin.com/xmlschemas/TrackPointExtension/v1" xmlns="http://www.topografix.com/GPX/1/1" xmlns:xsi="http://www.w3.org/2001/XMLSchema-instance" xmlns:ns2="http://www.garmin.com/xmlschemas/GpxExtensions/v3" creator="Garmin Connect" version="1.1" xsi:schemaLocation="http://www.topografix.com/GPX/1/1 http://www.topografix.com/GPX/11.xsd">
  <extensions>
<distance>5051.71</distance>
<average_hr>97.0</average_hr>
<average_speed>2.1429998874664307</average_speed>
<start_time>2026-06-09T12:13:48+00:00</start_time>
<end_time>2026-06-09T12:53:05.219000+00:00</end_time>
<moving_time>2341.205</moving_time>
<elapsed_time>2357.219</elapsed_time>
</extensions>
<metadata>
    <link href="connect.garmin.com">
      <text>Garmin Connect</text>
    </link>
    <time>2026-06-09T12:13:48.000Z</time>
  </metadata>
  <trk>
    <name>微健身跑步机139</name>
    <desc/>
    <type>treadmill_running</type>
    <trkseg/>
  </trk>
</gpx>
