<gpx xmlns:ns3="http://www.garmin.com/xmlschemas/TrackPointExtension/v1" xmlns="http://www.topografix.com/GPX/1/1" xmlns:xsi="http://www.w3.org/2001/XMLSchema-instance" xmlns:ns2="http://www.garmin.com/xmlschemas/GpxExtensions/v3" creator="Garmin Connect" version="1.1" xsi:schemaLocation="http://www.topografix.com/GPX/1/1 http://www.topografix.com/GPX/11.xsd">
  <extensions>
<distance>5207.49</distance>
<average_hr>102.0</average_hr>
<average_speed>2.1500000953674316</average_speed>
<start_time>2026-06-16T12:12:16+00:00</start_time>
<end_time>2026-06-16T12:52:38.609000+00:00</end_time>
<moving_time>2417.316</moving_time>
<elapsed_time>2422.609</elapsed_time>
</extensions>
<metadata>
    <link href="connect.garmin.com">
      <text>Garmin Connect</text>
    </link>
    <time>2026-06-16T12:12:16.000Z</time>
  </metadata>
  <trk>
    <name>微健身跑步机143</name>
    <desc/>
    <type>treadmill_running</type>
    <trkseg/>
  </trk>
</gpx>
