<gpx xmlns:ns3="http://www.garmin.com/xmlschemas/TrackPointExtension/v1" xmlns="http://www.topografix.com/GPX/1/1" xmlns:xsi="http://www.w3.org/2001/XMLSchema-instance" xmlns:ns2="http://www.garmin.com/xmlschemas/GpxExtensions/v3" creator="Garmin Connect" version="1.1" xsi:schemaLocation="http://www.topografix.com/GPX/1/1 http://www.topografix.com/GPX/11.xsd">
  <extensions>
<distance>5055.18</distance>
<average_hr>98.0</average_hr>
<average_speed>2.2809998989105225</average_speed>
<start_time>2026-06-25T12:10:34+00:00</start_time>
<end_time>2026-06-25T12:47:29.886000+00:00</end_time>
<moving_time>2209.765</moving_time>
<elapsed_time>2215.886</elapsed_time>
</extensions>
<metadata>
    <link href="connect.garmin.com">
      <text>Garmin Connect</text>
    </link>
    <time>2026-06-25T12:10:34.000Z</time>
  </metadata>
  <trk>
    <name>微健身跑步机151</name>
    <desc/>
    <type>treadmill_running</type>
    <trkseg/>
  </trk>
</gpx>
