<gpx xmlns:ns3="http://www.garmin.com/xmlschemas/TrackPointExtension/v1" xmlns="http://www.topografix.com/GPX/1/1" xmlns:xsi="http://www.w3.org/2001/XMLSchema-instance" xmlns:ns2="http://www.garmin.com/xmlschemas/GpxExtensions/v3" creator="Garmin Connect" version="1.1" xsi:schemaLocation="http://www.topografix.com/GPX/1/1 http://www.topografix.com/GPX/11.xsd">
  <extensions>
<distance>3333.05</distance>
<average_hr>100.0</average_hr>
<average_speed>2.0929999351501465</average_speed>
<start_time>2026-07-07T12:18:14+00:00</start_time>
<end_time>2026-07-07T12:44:46.423000+00:00</end_time>
<moving_time>1587.816</moving_time>
<elapsed_time>1592.423</elapsed_time>
</extensions>
<metadata>
    <link href="connect.garmin.com">
      <text>Garmin Connect</text>
    </link>
    <time>2026-07-07T12:18:14.000Z</time>
  </metadata>
  <trk>
    <name>微健身跑步机154</name>
    <desc>从固原转机郑州到广州航班大延误，居然晚点近7小时，到家已凌晨3点多，为了玩下世界杯跑步数徽章才坚持跑3K</desc>
    <type>treadmill_running</type>
    <trkseg/>
  </trk>
</gpx>
