<gpx xmlns:ns3="http://www.garmin.com/xmlschemas/TrackPointExtension/v1" xmlns="http://www.topografix.com/GPX/1/1" xmlns:xsi="http://www.w3.org/2001/XMLSchema-instance" xmlns:ns2="http://www.garmin.com/xmlschemas/GpxExtensions/v3" creator="Garmin Connect" version="1.1" xsi:schemaLocation="http://www.topografix.com/GPX/1/1 http://www.topografix.com/GPX/11.xsd">
  <extensions>
<distance>3334.77</distance>
<average_hr>99.0</average_hr>
<average_speed>2.1570000648498535</average_speed>
<start_time>2026-07-11T01:55:53+00:00</start_time>
<end_time>2026-07-11T02:21:39.361000+00:00</end_time>
<moving_time>1545.384</moving_time>
<elapsed_time>1546.361</elapsed_time>
</extensions>
<metadata>
    <link href="connect.garmin.com">
      <text>Garmin Connect</text>
    </link>
    <time>2026-07-11T01:55:53.000Z</time>
  </metadata>
  <trk>
    <name>微健身跑步机158</name>
    <desc/>
    <type>treadmill_running</type>
    <trkseg/>
  </trk>
</gpx>
