<gpx xmlns:ns3="http://www.garmin.com/xmlschemas/TrackPointExtension/v1" xmlns="http://www.topografix.com/GPX/1/1" xmlns:xsi="http://www.w3.org/2001/XMLSchema-instance" xmlns:ns2="http://www.garmin.com/xmlschemas/GpxExtensions/v3" creator="Garmin Connect" version="1.1" xsi:schemaLocation="http://www.topografix.com/GPX/1/1 http://www.topografix.com/GPX/11.xsd">
  <extensions>
<distance>2222.4</distance>
<average_hr>100.0</average_hr>
<average_speed>2.0920000076293945</average_speed>
<start_time>2026-07-11T02:27:34+00:00</start_time>
<end_time>2026-07-11T02:45:16.553000+00:00</end_time>
<moving_time>1056.0</moving_time>
<elapsed_time>1062.553</elapsed_time>
</extensions>
<metadata>
    <link href="connect.garmin.com">
      <text>Garmin Connect</text>
    </link>
    <time>2026-07-11T02:27:34.000Z</time>
  </metadata>
  <trk>
    <name>跑步机跑步机159</name>
    <desc/>
    <type>treadmill_running</type>
    <trkseg/>
  </trk>
</gpx>
