<gpx xmlns:ns3="http://www.garmin.com/xmlschemas/TrackPointExtension/v1" xmlns="http://www.topografix.com/GPX/1/1" xmlns:xsi="http://www.w3.org/2001/XMLSchema-instance" xmlns:ns2="http://www.garmin.com/xmlschemas/GpxExtensions/v3" creator="Garmin Connect" version="1.1" xsi:schemaLocation="http://www.topografix.com/GPX/1/1 http://www.topografix.com/GPX/11.xsd">
  <extensions>
<distance>5747.46</distance>
<average_hr>104.0</average_hr>
<average_speed>2.11299991607666</average_speed>
<start_time>2026-07-12T02:30:50+00:00</start_time>
<end_time>2026-07-12T03:16:10.348000+00:00</end_time>
<moving_time>2707.217</moving_time>
<elapsed_time>2854.946</elapsed_time>
</extensions>
<metadata>
    <link href="connect.garmin.com">
      <text>Garmin Connect</text>
    </link>
    <time>2026-07-12T02:30:50.000Z</time>
  </metadata>
  <trk>
    <name>微健身跑步机161</name>
    <desc/>
    <type>treadmill_running</type>
    <trkseg/>
  </trk>
</gpx>
