<gpx xmlns:ns3="http://www.garmin.com/xmlschemas/TrackPointExtension/v1" xmlns="http://www.topografix.com/GPX/1/1" xmlns:xsi="http://www.w3.org/2001/XMLSchema-instance" xmlns:ns2="http://www.garmin.com/xmlschemas/GpxExtensions/v3" creator="Garmin Connect" version="1.1" xsi:schemaLocation="http://www.topografix.com/GPX/1/1 http://www.topografix.com/GPX/11.xsd">
  <extensions>
<distance>10012.49</distance>
<average_hr>99.0</average_hr>
<average_speed>2.0999999046325684</average_speed>
<start_time>2026-07-14T12:03:32+00:00</start_time>
<end_time>2026-07-14T13:23:00.280000+00:00</end_time>
<moving_time>4680.414</moving_time>
<elapsed_time>5029.311</elapsed_time>
</extensions>
<metadata>
    <link href="connect.garmin.com">
      <text>Garmin Connect</text>
    </link>
    <time>2026-07-14T12:03:32.000Z</time>
  </metadata>
  <trk>
    <name>微健身跑步机164</name>
    <desc/>
    <type>treadmill_running</type>
    <trkseg/>
  </trk>
</gpx>
