<gpx xmlns:ns3="http://www.garmin.com/xmlschemas/TrackPointExtension/v1" xmlns="http://www.topografix.com/GPX/1/1" xmlns:xsi="http://www.w3.org/2001/XMLSchema-instance" xmlns:ns2="http://www.garmin.com/xmlschemas/GpxExtensions/v3" creator="Garmin Connect" version="1.1" xsi:schemaLocation="http://www.topografix.com/GPX/1/1 http://www.topografix.com/GPX/11.xsd">
  <extensions>
<distance>11282.34</distance>
<average_hr>101.0</average_hr>
<average_speed>2.0820000171661377</average_speed>
<start_time>2026-07-17T11:49:12+00:00</start_time>
<end_time>2026-07-17T13:19:30.327000+00:00</end_time>
<moving_time>5403.538</moving_time>
<elapsed_time>5418.327</elapsed_time>
</extensions>
<metadata>
    <link href="connect.garmin.com">
      <text>Garmin Connect</text>
    </link>
    <time>2026-07-17T11:49:12.000Z</time>
  </metadata>
  <trk>
    <name>微健身跑步机165</name>
    <desc/>
    <type>treadmill_running</type>
    <trkseg/>
  </trk>
</gpx>
