<gpx xmlns:ns3="http://www.garmin.com/xmlschemas/TrackPointExtension/v1" xmlns="http://www.topografix.com/GPX/1/1" xmlns:xsi="http://www.w3.org/2001/XMLSchema-instance" xmlns:ns2="http://www.garmin.com/xmlschemas/GpxExtensions/v3" creator="Garmin Connect" version="1.1" xsi:schemaLocation="http://www.topografix.com/GPX/1/1 http://www.topografix.com/GPX/11.xsd">
  <extensions>
<distance>5204.98</distance>
<average_hr>100.0</average_hr>
<average_speed>2.11899995803833</average_speed>
<start_time>2026-07-27T12:13:51+00:00</start_time>
<end_time>2026-07-27T12:54:46.804000+00:00</end_time>
<moving_time>2448.589</moving_time>
<elapsed_time>2455.804</elapsed_time>
</extensions>
<metadata>
    <link href="connect.garmin.com">
      <text>Garmin Connect</text>
    </link>
    <time>2026-07-27T12:13:51.000Z</time>
  </metadata>
  <trk>
    <name>微健身跑步机170</name>
    <desc/>
    <type>treadmill_running</type>
    <trkseg/>
  </trk>
</gpx>
