<gpx xmlns:ns3="http://www.garmin.com/xmlschemas/TrackPointExtension/v1" xmlns="http://www.topografix.com/GPX/1/1" xmlns:xsi="http://www.w3.org/2001/XMLSchema-instance" xmlns:ns2="http://www.garmin.com/xmlschemas/GpxExtensions/v3" creator="Garmin Connect" version="1.1" xsi:schemaLocation="http://www.topografix.com/GPX/1/1 http://www.topografix.com/GPX/11.xsd">
  <extensions>
<distance>5204.55</distance>
<average_hr>91.0</average_hr>
<average_speed>1.9040000438690186</average_speed>
<start_time>2026-08-09T11:07:29+00:00</start_time>
<end_time>2026-08-09T11:53:02.562000+00:00</end_time>
<moving_time>2716.331</moving_time>
<elapsed_time>2758.591</elapsed_time>
</extensions>
<metadata>
    <link href="connect.garmin.com">
      <text>Garmin Connect</text>
    </link>
    <time>2026-08-09T11:07:29.000Z</time>
  </metadata>
  <trk>
    <name>微健身跑步机175</name>
    <desc/>
    <type>treadmill_running</type>
    <trkseg/>
  </trk>
</gpx>
