<gpx xmlns:ns3="http://www.garmin.com/xmlschemas/TrackPointExtension/v1" xmlns="http://www.topografix.com/GPX/1/1" xmlns:xsi="http://www.w3.org/2001/XMLSchema-instance" xmlns:ns2="http://www.garmin.com/xmlschemas/GpxExtensions/v3" creator="Garmin Connect" version="1.1" xsi:schemaLocation="http://www.topografix.com/GPX/1/1 http://www.topografix.com/GPX/11.xsd">
  <extensions>
<distance>6062.83</distance>
<average_hr>108.0</average_hr>
<average_speed>2.1630001068115234</average_speed>
<start_time>2026-08-29T12:22:48+00:00</start_time>
<end_time>2026-08-29T13:09:30.740000+00:00</end_time>
<moving_time>2795.399</moving_time>
<elapsed_time>2802.74</elapsed_time>
</extensions>
<metadata>
    <link href="connect.garmin.com">
      <text>Garmin Connect</text>
    </link>
    <time>2026-08-29T12:22:48.000Z</time>
  </metadata>
  <trk>
    <name>微健身跑步机184</name>
    <desc/>
    <type>treadmill_running</type>
    <trkseg/>
  </trk>
</gpx>
