<gpx xmlns:ns3="http://www.garmin.com/xmlschemas/TrackPointExtension/v1" xmlns="http://www.topografix.com/GPX/1/1" xmlns:xsi="http://www.w3.org/2001/XMLSchema-instance" xmlns:ns2="http://www.garmin.com/xmlschemas/GpxExtensions/v3" creator="Garmin Connect" version="1.1" xsi:schemaLocation="http://www.topografix.com/GPX/1/1 http://www.topografix.com/GPX/11.xsd">
  <extensions>
<distance>5054.84</distance>
<average_hr>105.0</average_hr>
<average_speed>2.1570000648498535</average_speed>
<start_time>2026-08-31T12:06:17+00:00</start_time>
<end_time>2026-08-31T12:45:20.369000+00:00</end_time>
<moving_time>2340.62</moving_time>
<elapsed_time>2343.369</elapsed_time>
</extensions>
<metadata>
    <link href="connect.garmin.com">
      <text>Garmin Connect</text>
    </link>
    <time>2026-08-31T12:06:17.000Z</time>
  </metadata>
  <trk>
    <name>微健身跑步机185</name>
    <desc/>
    <type>treadmill_running</type>
    <trkseg/>
  </trk>
</gpx>
