<gpx xmlns:ns3="http://www.garmin.com/xmlschemas/TrackPointExtension/v1" xmlns="http://www.topografix.com/GPX/1/1" xmlns:xsi="http://www.w3.org/2001/XMLSchema-instance" xmlns:ns2="http://www.garmin.com/xmlschemas/GpxExtensions/v3" creator="Garmin Connect" version="1.1" xsi:schemaLocation="http://www.topografix.com/GPX/1/1 http://www.topografix.com/GPX/11.xsd">
  <extensions>
<distance>5202.21</distance>
<average_hr>105.0</average_hr>
<average_speed>2.117000102996826</average_speed>
<start_time>2026-09-06T10:22:29+00:00</start_time>
<end_time>2026-09-06T11:03:26.615000+00:00</end_time>
<moving_time>2424.956</moving_time>
<elapsed_time>2569.077</elapsed_time>
</extensions>
<metadata>
    <link href="connect.garmin.com">
      <text>Garmin Connect</text>
    </link>
    <time>2026-09-06T10:22:29.000Z</time>
  </metadata>
  <trk>
    <name>微健身跑步机188</name>
    <desc/>
    <type>treadmill_running</type>
    <trkseg/>
  </trk>
</gpx>
