<gpx xmlns:ns3="http://www.garmin.com/xmlschemas/TrackPointExtension/v1" xmlns="http://www.topografix.com/GPX/1/1" xmlns:xsi="http://www.w3.org/2001/XMLSchema-instance" xmlns:ns2="http://www.garmin.com/xmlschemas/GpxExtensions/v3" creator="Garmin Connect" version="1.1" xsi:schemaLocation="http://www.topografix.com/GPX/1/1 http://www.topografix.com/GPX/11.xsd">
  <extensions>
<distance>2003.21</distance>
<average_hr>108.0</average_hr>
<average_speed>1.937000036239624</average_speed>
<start_time>2026-09-07T12:42:32+00:00</start_time>
<end_time>2026-09-07T12:59:46.278000+00:00</end_time>
<moving_time>1029.0</moving_time>
<elapsed_time>1037.51</elapsed_time>
</extensions>
<metadata>
    <link href="connect.garmin.com">
      <text>Garmin Connect</text>
    </link>
    <time>2026-09-07T12:42:32.000Z</time>
  </metadata>
  <trk>
    <name>微健身跑步机189C</name>
    <desc/>
    <type>treadmill_running</type>
    <trkseg/>
  </trk>
</gpx>
