<gpx xmlns:ns3="http://www.garmin.com/xmlschemas/TrackPointExtension/v1" xmlns="http://www.topografix.com/GPX/1/1" xmlns:xsi="http://www.w3.org/2001/XMLSchema-instance" xmlns:ns2="http://www.garmin.com/xmlschemas/GpxExtensions/v3" creator="Garmin Connect" version="1.1" xsi:schemaLocation="http://www.topografix.com/GPX/1/1 http://www.topografix.com/GPX/11.xsd">
  <extensions>
<distance>5203.82</distance>
<average_hr>109.0</average_hr>
<average_speed>2.1610000133514404</average_speed>
<start_time>2026-09-15T11:58:25+00:00</start_time>
<end_time>2026-09-15T12:38:32.820000+00:00</end_time>
<moving_time>2406.482</moving_time>
<elapsed_time>2407.82</elapsed_time>
</extensions>
<metadata>
    <link href="connect.garmin.com">
      <text>Garmin Connect</text>
    </link>
    <time>2026-09-15T11:58:25.000Z</time>
  </metadata>
  <trk>
    <name>微健身跑步机190</name>
    <desc/>
    <type>treadmill_running</type>
    <trkseg/>
  </trk>
</gpx>
