<gpx xmlns:ns3="http://www.garmin.com/xmlschemas/TrackPointExtension/v1" xmlns="http://www.topografix.com/GPX/1/1" xmlns:xsi="http://www.w3.org/2001/XMLSchema-instance" xmlns:ns2="http://www.garmin.com/xmlschemas/GpxExtensions/v3" creator="Garmin Connect" version="1.1" xsi:schemaLocation="http://www.topografix.com/GPX/1/1 http://www.topografix.com/GPX/11.xsd">
  <extensions>
<distance>15.87</distance>
<average_hr></average_hr>
<average_speed>0.13718049564773915</average_speed>
<start_time>2019-08-04T09:46:30+00:00</start_time>
<end_time>2019-08-04T09:48:25.687000+00:00</end_time>
<moving_time>98.0</moving_time>
<elapsed_time>115.687</elapsed_time>
</extensions>
<metadata>
    <link href="connect.garmin.com">
      <text>Garmin Connect</text>
    </link>
    <time>2019-08-04T09:46:30.000Z</time>
  </metadata>
  <trk>
    <name>青海龙羊湖沾水</name>
    <type>open_water_swimming</type>
    <trkseg>
      <trkpt lat="36.143443398177623748779296875" lon="100.891295783221721649169921875">
        <time>2019-08-04T09:46:30.000Z</time>
        <extensions>
          <ns3:TrackPointExtension>
            <ns3:atemp>24.0</ns3:atemp>
            <ns3:cad>0</ns3:cad>
          </ns3:TrackPointExtension>
        </extensions>
      </trkpt>
      <trkpt lat="36.14344096742570400238037109375" lon="100.8912506885826587677001953125">
        <time>2019-08-04T09:46:36.000Z</time>
        <extensions>
          <ns3:TrackPointExtension>
            <ns3:atemp>22.0</ns3:atemp>
            <ns3:cad>0</ns3:cad>
          </ns3:TrackPointExtension>
        </extensions>
      </trkpt>
      <trkpt lat="36.14350567571818828582763671875" lon="100.8912587352097034454345703125">
        <time>2019-08-04T09:48:26.000Z</time>
        <extensions>
          <ns3:TrackPointExtension>
            <ns3:atemp>21.0</ns3:atemp>
            <ns3:cad>0</ns3:cad>
          </ns3:TrackPointExtension>
        </extensions>
      </trkpt>
    </trkseg>
  </trk>
</gpx>
